type,name,url,minority_url,thomas_id,senate_committee_id,wikipedia,house_committee_id,subcommittees__name,subcommittees__thomas_id,subcommittees__wikipedia,subcommittees__address,subcommittees__phone,address,phone,rss_url,minority_rss_url,jurisdiction,jurisdiction_source
house,House Committee on Agriculture,http://agriculture.house.gov/,http://democrats.agriculture.house.gov/,HSAG,,,AG,Conservation and Forestry,15,,"1301 LHOB; Washington, DC 20515",(202) 225-2171,"1301 LHOB; Washington, DC 20515-6001",(202) 225-2171,http://agriculture.house.gov/rss.xml,http://democrats.agriculture.house.gov/Rss.aspx?GroupID=1,"The House Committee on Agriculture has legislative jurisdiction over agriculture, food, rural development, and forestry.",https://agriculture.house.gov/issuesinfocus/
house,House Committee on Agriculture,http://agriculture.house.gov/,http://democrats.agriculture.house.gov/,HSAG,,,AG,"Commodity Exchanges, Energy, and Credit",22,,"1301 LHOB; Washington, DC 20515",(202) 225-2171,"1301 LHOB; Washington, DC 20515-6001",(202) 225-2171,http://agriculture.house.gov/rss.xml,http://democrats.agriculture.house.gov/Rss.aspx?GroupID=1,"The House Committee on Agriculture has legislative jurisdiction over agriculture, food, rural development, and forestry.",https://agriculture.house.gov/issuesinfocus/
house,House Committee on Agriculture,http://agriculture.house.gov/,http://democrats.agriculture.house.gov/,HSAG,,,AG,General Farm Commodities and Risk Management,16,,"1301 LHOB; Washington, DC 20515",(202) 225-2171,"1301 LHOB; Washington, DC 20515-6001",(202) 225-2171,http://agriculture.house.gov/rss.xml,http://democrats.agriculture.house.gov/Rss.aspx?GroupID=1,"The House Committee on Agriculture has legislative jurisdiction over agriculture, food, rural development, and forestry.",https://agriculture.house.gov/issuesinfocus/
house,House Committee on Agriculture,http://agriculture.house.gov/,http://democrats.agriculture.house.gov/,HSAG,,,AG,Livestock and Foreign Agriculture,29,,"1301 LHOB; Washington, DC 20515",(202) 225-2171,"1301 LHOB; Washington, DC 20515-6001",(202) 225-2171,http://agriculture.house.gov/rss.xml,http://democrats.agriculture.house.gov/Rss.aspx?GroupID=1,"The House Committee on Agriculture has legislative jurisdiction over agriculture, food, rural development, and forestry.",https://agriculture.house.gov/issuesinfocus/
house,House Committee on Agriculture,http://agriculture.house.gov/,http://democrats.agriculture.house.gov/,HSAG,,,AG,"Biotechnology, Horticulture, and Research",14,,"1301 LHOB; Washington, DC 20515",(202) 225-2171,"1301 LHOB; Washington, DC 20515-6001",(202) 225-2171,http://agriculture.house.gov/rss.xml,http://democrats.agriculture.house.gov/Rss.aspx?GroupID=1,"The House Committee on Agriculture has legislative jurisdiction over agriculture, food, rural development, and forestry.",https://agriculture.house.gov/issuesinfocus/
house,House Committee on Agriculture,http://agriculture.house.gov/,http://democrats.agriculture.house.gov/,HSAG,,,AG,Nutrition,03,,"1301 LHOB; Washington, DC 20515",(202) 225-2171,"1301 LHOB; Washington, DC 20515-6001",(202) 225-2171,http://agriculture.house.gov/rss.xml,http://democrats.agriculture.house.gov/Rss.aspx?GroupID=1,"The House Committee on Agriculture has legislative jurisdiction over agriculture, food, rural development, and forestry.",https://agriculture.house.gov/issuesinfocus/
house,House Committee on Appropriations,http://appropriations.house.gov/,http://democrats.appropriations.house.gov,HSAP,,,AP,"Agriculture, Rural Development, Food and Drug Administration, and Related Agencies",01,,"2362A RHOB; Washington, DC 20515",(202) 225-2638,"H305 CAPITOL; Washington, DC 20515-6015",(202) 225-2771,http://appropriations.house.gov/news/rss.aspx,http://democrats.appropriations.house.gov/rss.xml,"The House Committee on Appropriations is responsible for legislation allocating federal funds prior to expenditure from the treasury. Appropriations are generally limited to the levels set by the Budget Resolution drafted by the House Committee on the Budget. The Committee is also responsible for supplemental spending bills, which are sometimes needed in the middle of a fiscal year to compensate for emergency expenses.",https://appropriations.house.gov/about/
house,House Committee on Appropriations,http://appropriations.house.gov/,http://democrats.appropriations.house.gov,HSAP,,,AP,"Commerce, Justice, Science, and Related Agencies",19,,"H310 CAPITOL; Washington, DC 20515",(202) 225-3351,"H305 CAPITOL; Washington, DC 20515-6015",(202) 225-2771,http://appropriations.house.gov/news/rss.aspx,http://democrats.appropriations.house.gov/rss.xml,"The House Committee on Appropriations is responsible for legislation allocating federal funds prior to expenditure from the treasury. Appropriations are generally limited to the levels set by the Budget Resolution drafted by the House Committee on the Budget. The Committee is also responsible for supplemental spending bills, which are sometimes needed in the middle of a fiscal year to compensate for emergency expenses.",https://appropriations.house.gov/about/
house,House Committee on Appropriations,http://appropriations.house.gov/,http://democrats.appropriations.house.gov,HSAP,,,AP,Defense,02,,"H405 CAPITOL; Washington, DC 20515",(202) 225-2847,"H305 CAPITOL; Washington, DC 20515-6015",(202) 225-2771,http://appropriations.house.gov/news/rss.aspx,http://democrats.appropriations.house.gov/rss.xml,"The House Committee on Appropriations is responsible for legislation allocating federal funds prior to expenditure from the treasury. Appropriations are generally limited to the levels set by the Budget Resolution drafted by the House Committee on the Budget. The Committee is also responsible for supplemental spending bills, which are sometimes needed in the middle of a fiscal year to compensate for emergency expenses.",https://appropriations.house.gov/about/
house,House Committee on Appropriations,http://appropriations.house.gov/,http://democrats.appropriations.house.gov,HSAP,,,AP,"Energy and Water Development, and Related Agencies",10,,"2362B RHOB; Washington, DC 20515",(202) 225-3421,"H305 CAPITOL; Washington, DC 20515-6015",(202) 225-2771,http://appropriations.house.gov/news/rss.aspx,http://democrats.appropriations.house.gov/rss.xml,"The House Committee on Appropriations is responsible for legislation allocating federal funds prior to expenditure from the treasury. Appropriations are generally limited to the levels set by the Budget Resolution drafted by the House Committee on the Budget. The Committee is also responsible for supplemental spending bills, which are sometimes needed in the middle of a fiscal year to compensate for emergency expenses.",https://appropriations.house.gov/about/
house,House Committee on Appropriations,http://appropriations.house.gov/,http://democrats.appropriations.house.gov,HSAP,,,AP,Financial Services and General Government,23,,"2000 RHOB; Washington, DC 20515",(202) 225-7245,"H305 CAPITOL; Washington, DC 20515-6015",(202) 225-2771,http://appropriations.house.gov/news/rss.aspx,http://democrats.appropriations.house.gov/rss.xml,"The House Committee on Appropriations is responsible for legislation allocating federal funds prior to expenditure from the treasury. Appropriations are generally limited to the levels set by the Budget Resolution drafted by the House Committee on the Budget. The Committee is also responsible for supplemental spending bills, which are sometimes needed in the middle of a fiscal year to compensate for emergency expenses.",https://appropriations.house.gov/about/
house,House Committee on Appropriations,http://appropriations.house.gov/,http://democrats.appropriations.house.gov,HSAP,,,AP,Homeland Security,15,,"2006 RHOB; Washington, DC 20515",(202) 225-5834,"H305 CAPITOL; Washington, DC 20515-6015",(202) 225-2771,http://appropriations.house.gov/news/rss.aspx,http://democrats.appropriations.house.gov/rss.xml,"The House Committee on Appropriations is responsible for legislation allocating federal funds prior to expenditure from the treasury. Appropriations are generally limited to the levels set by the Budget Resolution drafted by the House Committee on the Budget. The Committee is also responsible for supplemental spending bills, which are sometimes needed in the middle of a fiscal year to compensate for emergency expenses.",https://appropriations.house.gov/about/
house,House Committee on Appropriations,http://appropriations.house.gov/,http://democrats.appropriations.house.gov,HSAP,,,AP,"Interior, Environment, and Related Agencies",06,,"2007 RHOB; Washington, DC 20515",(202) 225-3081,"H305 CAPITOL; Washington, DC 20515-6015",(202) 225-2771,http://appropriations.house.gov/news/rss.aspx,http://democrats.appropriations.house.gov/rss.xml,"The House Committee on Appropriations is responsible for legislation allocating federal funds prior to expenditure from the treasury. Appropriations are generally limited to the levels set by the Budget Resolution drafted by the House Committee on the Budget. The Committee is also responsible for supplemental spending bills, which are sometimes needed in the middle of a fiscal year to compensate for emergency expenses.",https://appropriations.house.gov/about/
house,House Committee on Appropriations,http://appropriations.house.gov/,http://democrats.appropriations.house.gov,HSAP,,,AP,"Labor, Health and Human Services, Education, and Related Agencies",07,,"2358B RHOB; Washington, DC 20515",(202) 225-3508,"H305 CAPITOL; Washington, DC 20515-6015",(202) 225-2771,http://appropriations.house.gov/news/rss.aspx,http://democrats.appropriations.house.gov/rss.xml,"The House Committee on Appropriations is responsible for legislation allocating federal funds prior to expenditure from the treasury. Appropriations are generally limited to the levels set by the Budget Resolution drafted by the House Committee on the Budget. The Committee is also responsible for supplemental spending bills, which are sometimes needed in the middle of a fiscal year to compensate for emergency expenses.",https://appropriations.house.gov/about/
house,House Committee on Appropriations,http://appropriations.house.gov/,http://democrats.appropriations.house.gov,HSAP,,,AP,Legislative Branch,24,,"HT2 CAPITOL; Washington, DC 20515",(202) 226-7252,"H305 CAPITOL; Washington, DC 20515-6015",(202) 225-2771,http://appropriations.house.gov/news/rss.aspx,http://democrats.appropriations.house.gov/rss.xml,"The House Committee on Appropriations is responsible for legislation allocating federal funds prior to expenditure from the treasury. Appropriations are generally limited to the levels set by the Budget Resolution drafted by the House Committee on the Budget. The Committee is also responsible for supplemental spending bills, which are sometimes needed in the middle of a fiscal year to compensate for emergency expenses.",https://appropriations.house.gov/about/
house,House Committee on Appropriations,http://appropriations.house.gov/,http://democrats.appropriations.house.gov,HSAP,,,AP,"Military Construction, Veterans Affairs and Related Agencies",18,,"HVC227 CAPITOL; Washington, DC 20515",(202) 225-3047,"H305 CAPITOL; Washington, DC 20515-6015",(202) 225-2771,http://appropriations.house.gov/news/rss.aspx,http://democrats.appropriations.house.gov/rss.xml,"The House Committee on Appropriations is responsible for legislation allocating federal funds prior to expenditure from the treasury. Appropriations are generally limited to the levels set by the Budget Resolution drafted by the House Committee on the Budget. The Committee is also responsible for supplemental spending bills, which are sometimes needed in the middle of a fiscal year to compensate for emergency expenses.",https://appropriations.house.gov/about/
house,House Committee on Appropriations,http://appropriations.house.gov/,http://democrats.appropriations.house.gov,HSAP,,,AP,"State, Foreign Operations, and Related Programs",04,,"HT2 CAPITOL; Washington, DC 20515",(202) 225-2041,"H305 CAPITOL; Washington, DC 20515-6015",(202) 225-2771,http://appropriations.house.gov/news/rss.aspx,http://democrats.appropriations.house.gov/rss.xml,"The House Committee on Appropriations is responsible for legislation allocating federal funds prior to expenditure from the treasury. Appropriations are generally limited to the levels set by the Budget Resolution drafted by the House Committee on the Budget. The Committee is also responsible for supplemental spending bills, which are sometimes needed in the middle of a fiscal year to compensate for emergency expenses.",https://appropriations.house.gov/about/
house,House Committee on Appropriations,http://appropriations.house.gov/,http://democrats.appropriations.house.gov,HSAP,,,AP,"Transportation, Housing and Urban Development, and Related Agencies",20,,"2358A RHOB; Washington, DC 20515",(202) 225-2141,"H305 CAPITOL; Washington, DC 20515-6015",(202) 225-2771,http://appropriations.house.gov/news/rss.aspx,http://democrats.appropriations.house.gov/rss.xml,"The House Committee on Appropriations is responsible for legislation allocating federal funds prior to expenditure from the treasury. Appropriations are generally limited to the levels set by the Budget Resolution drafted by the House Committee on the Budget. The Committee is also responsible for supplemental spending bills, which are sometimes needed in the middle of a fiscal year to compensate for emergency expenses.",https://appropriations.house.gov/about/
house,House Committee on Armed Services,http://armedservices.house.gov/,http://democrats.armedservices.house.gov/,HSAS,,,AS,Tactical Air and Land Forces,25,,"2340 RHOB; Washington, DC 20515",(202) 225-4440,"2216 RHOB; Washington, DC 20515-6035",(202) 225-4151,http://armedservices.house.gov/index.cfm/rss/feed,http://democrats.armedservices.house.gov/index.cfm/rss/feed,The House Committee on Armed Services has legislative jurisdiction over military and defense.,https://armedservices.house.gov/about
house,House Committee on Armed Services,http://armedservices.house.gov/,http://democrats.armedservices.house.gov/,HSAS,,,AS,Military Personnel,02,,"2340 RHOB; Washington, DC 20515",(202) 225-7560,"2216 RHOB; Washington, DC 20515-6035",(202) 225-4151,http://armedservices.house.gov/index.cfm/rss/feed,http://democrats.armedservices.house.gov/index.cfm/rss/feed,The House Committee on Armed Services has legislative jurisdiction over military and defense.,https://armedservices.house.gov/about
house,House Committee on Armed Services,http://armedservices.house.gov/,http://democrats.armedservices.house.gov/,HSAS,,,AS,Oversight and Investigations,06,,"2119 RHOB; Washington, DC 20515",(202) 226-5048,"2216 RHOB; Washington, DC 20515-6035",(202) 225-4151,http://armedservices.house.gov/index.cfm/rss/feed,http://democrats.armedservices.house.gov/index.cfm/rss/feed,The House Committee on Armed Services has legislative jurisdiction over military and defense.,https://armedservices.house.gov/about
house,House Committee on Armed Services,http://armedservices.house.gov/,http://democrats.armedservices.house.gov/,HSAS,,,AS,Readiness,03,,"2340 RHOB; Washington, DC 20515",(202) 226-8979,"2216 RHOB; Washington, DC 20515-6035",(202) 225-4151,http://armedservices.house.gov/index.cfm/rss/feed,http://democrats.armedservices.house.gov/index.cfm/rss/feed,The House Committee on Armed Services has legislative jurisdiction over military and defense.,https://armedservices.house.gov/about
house,House Committee on Armed Services,http://armedservices.house.gov/,http://democrats.armedservices.house.gov/,HSAS,,,AS,Seapower and Projection Forces,28,,"2340 RHOB; Washington, DC 20515",(202) 226-2211,"2216 RHOB; Washington, DC 20515-6035",(202) 225-4151,http://armedservices.house.gov/index.cfm/rss/feed,http://democrats.armedservices.house.gov/index.cfm/rss/feed,The House Committee on Armed Services has legislative jurisdiction over military and defense.,https://armedservices.house.gov/about
house,House Committee on Armed Services,http://armedservices.house.gov/,http://democrats.armedservices.house.gov/,HSAS,,,AS,Strategic Forces,29,,"2340 RHOB; Washington, DC 20515",(202) 225-1967,"2216 RHOB; Washington, DC 20515-6035",(202) 225-4151,http://armedservices.house.gov/index.cfm/rss/feed,http://democrats.armedservices.house.gov/index.cfm/rss/feed,The House Committee on Armed Services has legislative jurisdiction over military and defense.,https://armedservices.house.gov/about
house,House Committee on Armed Services,http://armedservices.house.gov/,http://democrats.armedservices.house.gov/,HSAS,,,AS,Emerging Threats and Capabilities,26,,"2340 RHOB; Washington, DC 20515",(202) 226-2843,"2216 RHOB; Washington, DC 20515-6035",(202) 225-4151,http://armedservices.house.gov/index.cfm/rss/feed,http://democrats.armedservices.house.gov/index.cfm/rss/feed,The House Committee on Armed Services has legislative jurisdiction over military and defense.,https://armedservices.house.gov/about
house,House Committee on Financial Services,http://financialservices.house.gov/,http://democrats.financialservices.house.gov/,HSBA,,,BA,"Capital Markets, Securities, and Investment",16,,"2129 RHOB; Washington, DC 20515",(202) 225-7502,"2129 RHOB; Washington, DC 20515-6050",(202) 225-7502,http://financialservices.house.gov/news/rss.aspx,http://democrats.financialservices.house.gov/Rss.aspx?GroupID=1,"The House Financial Services Committee has jurisdiction over issues pertaining to the economy, the banking system, housing, insurance, and securities and exchanges. Additionally, the Committee also has jurisdiction over monetary policy, international finance, international monetary organizations, and efforts to combat terrorist financing. The Committee oversees the Nation’s economy through its oversight of the Federal Reserve Board and individual reserve banks, the Treasury, the production and distribution of currency, and the Nation’s capital markets.",https://financialservices.house.gov/about/
house,House Committee on Financial Services,http://financialservices.house.gov/,http://democrats.financialservices.house.gov/,HSBA,,,BA,Financial Institutions and Consumer Credit,15,,"2129 RHOB; Washington, DC 20515",(202) 225-7502,"2129 RHOB; Washington, DC 20515-6050",(202) 225-7502,http://financialservices.house.gov/news/rss.aspx,http://democrats.financialservices.house.gov/Rss.aspx?GroupID=1,"The House Financial Services Committee has jurisdiction over issues pertaining to the economy, the banking system, housing, insurance, and securities and exchanges. Additionally, the Committee also has jurisdiction over monetary policy, international finance, international monetary organizations, and efforts to combat terrorist financing. The Committee oversees the Nation’s economy through its oversight of the Federal Reserve Board and individual reserve banks, the Treasury, the production and distribution of currency, and the Nation’s capital markets.",https://financialservices.house.gov/about/
house,House Committee on Financial Services,http://financialservices.house.gov/,http://democrats.financialservices.house.gov/,HSBA,,,BA,Housing and Insurance,04,,"2129 RHOB; Washington, DC 20515",(202) 225-7502,"2129 RHOB; Washington, DC 20515-6050",(202) 225-7502,http://financialservices.house.gov/news/rss.aspx,http://democrats.financialservices.house.gov/Rss.aspx?GroupID=1,"The House Financial Services Committee has jurisdiction over issues pertaining to the economy, the banking system, housing, insurance, and securities and exchanges. Additionally, the Committee also has jurisdiction over monetary policy, international finance, international monetary organizations, and efforts to combat terrorist financing. The Committee oversees the Nation’s economy through its oversight of the Federal Reserve Board and individual reserve banks, the Treasury, the production and distribution of currency, and the Nation’s capital markets.",https://financialservices.house.gov/about/
house,House Committee on Financial Services,http://financialservices.house.gov/,http://democrats.financialservices.house.gov/,HSBA,,,BA,Monetary Policy and Trade,20,,"2129 RHOB; Washington, DC 20515",(202) 225-7502,"2129 RHOB; Washington, DC 20515-6050",(202) 225-7502,http://financialservices.house.gov/news/rss.aspx,http://democrats.financialservices.house.gov/Rss.aspx?GroupID=1,"The House Financial Services Committee has jurisdiction over issues pertaining to the economy, the banking system, housing, insurance, and securities and exchanges. Additionally, the Committee also has jurisdiction over monetary policy, international finance, international monetary organizations, and efforts to combat terrorist financing. The Committee oversees the Nation’s economy through its oversight of the Federal Reserve Board and individual reserve banks, the Treasury, the production and distribution of currency, and the Nation’s capital markets.",https://financialservices.house.gov/about/
house,House Committee on Financial Services,http://financialservices.house.gov/,http://democrats.financialservices.house.gov/,HSBA,,,BA,Oversight and Investigations,09,,"2129 RHOB; Washington, DC 20515",(202) 225-7502,"2129 RHOB; Washington, DC 20515-6050",(202) 225-7502,http://financialservices.house.gov/news/rss.aspx,http://democrats.financialservices.house.gov/Rss.aspx?GroupID=1,"The House Financial Services Committee has jurisdiction over issues pertaining to the economy, the banking system, housing, insurance, and securities and exchanges. Additionally, the Committee also has jurisdiction over monetary policy, international finance, international monetary organizations, and efforts to combat terrorist financing. The Committee oversees the Nation’s economy through its oversight of the Federal Reserve Board and individual reserve banks, the Treasury, the production and distribution of currency, and the Nation’s capital markets.",https://financialservices.house.gov/about/
house,House Committee on Financial Services,http://financialservices.house.gov/,http://democrats.financialservices.house.gov/,HSBA,,,BA,Terrorism and Illicit Finance,01,,"2129 RHOB; Washington, DC 20515",(202) 225-7502,"2129 RHOB; Washington, DC 20515-6050",(202) 225-7502,http://financialservices.house.gov/news/rss.aspx,http://democrats.financialservices.house.gov/Rss.aspx?GroupID=1,"The House Financial Services Committee has jurisdiction over issues pertaining to the economy, the banking system, housing, insurance, and securities and exchanges. Additionally, the Committee also has jurisdiction over monetary policy, international finance, international monetary organizations, and efforts to combat terrorist financing. The Committee oversees the Nation’s economy through its oversight of the Federal Reserve Board and individual reserve banks, the Treasury, the production and distribution of currency, and the Nation’s capital markets.",https://financialservices.house.gov/about/
house,House Committee on the Budget,http://budget.house.gov/,http://democrats.budget.house.gov/,HSBU,,,BU,,,,,,"B234 LHOB; Washington, DC 20515-6065",(202) 226-7270,http://budget.house.gov/news/rss.aspx,http://democrats.budget.house.gov/rss.xml,"The House Committee on the Budget is responsible for drafting a concurrent resolution on the budget for congressional action on spending, revenue, and debt-limit legislation. The Budget Resolution must be jointly agreed to by both the House and the Senate, but does not need to be signed by the President. The Committee is also responsible for enforcing the Budget Resolution by informing representatives of violations to the budget, and by working with other committees, such as the Committee on Appropriations, to prevent potential violations.",https://budget.house.gov/about/
house,House Committee on Education and the Workforce,http://edworkforce.house.gov/,http://democrats.edworkforce.house.gov/,HSED,,,ED,"Early Childhood, Elementary, and Secondary Education",14,,"2176 RHOB; Washington, DC 20515",(202) 225-4527,"2176 RHOB; Washington, DC 20515-6100",(202) 225-4527,http://edworkforce.house.gov/news/rss.aspx,http://democrats.edworkforce.house.gov/rss.xml,"The House Committee on Education and the Workforce has legislative jurisdiction over matters related to higher and lower education, workforce development and protections, and health, employment, labor, and pensions.",https://edworkforce.house.gov/committee/subcommitteesjurisdictions.htm
house,House Committee on Education and the Workforce,http://edworkforce.house.gov/,http://democrats.edworkforce.house.gov/,HSED,,,ED,"Health, Employment, Labor, and Pensions",02,,"2176 RHOB; Washington, DC 20515",(202) 225-4527,"2176 RHOB; Washington, DC 20515-6100",(202) 225-4527,http://edworkforce.house.gov/news/rss.aspx,http://democrats.edworkforce.house.gov/rss.xml,"The House Committee on Education and the Workforce has legislative jurisdiction over matters related to higher and lower education, workforce development and protections, and health, employment, labor, and pensions.",https://edworkforce.house.gov/committee/subcommitteesjurisdictions.htm
house,House Committee on Education and the Workforce,http://edworkforce.house.gov/,http://democrats.edworkforce.house.gov/,HSED,,,ED,Higher Education and Workforce Development,13,,"2176 RHOB; Washington, DC 20515",(202) 225-4527,"2176 RHOB; Washington, DC 20515-6100",(202) 225-4527,http://edworkforce.house.gov/news/rss.aspx,http://democrats.edworkforce.house.gov/rss.xml,"The House Committee on Education and the Workforce has legislative jurisdiction over matters related to higher and lower education, workforce development and protections, and health, employment, labor, and pensions.",https://edworkforce.house.gov/committee/subcommitteesjurisdictions.htm
house,House Committee on Education and the Workforce,http://edworkforce.house.gov/,http://democrats.edworkforce.house.gov/,HSED,,,ED,Workforce Protections,10,,"2176 RHOB; Washington, DC 20515",(202) 225-4527,"2176 RHOB; Washington, DC 20515-6100",(202) 225-4527,http://edworkforce.house.gov/news/rss.aspx,http://democrats.edworkforce.house.gov/rss.xml,"The House Committee on Education and the Workforce has legislative jurisdiction over matters related to higher and lower education, workforce development and protections, and health, employment, labor, and pensions.",https://edworkforce.house.gov/committee/subcommitteesjurisdictions.htm
house,House Committee on Foreign Affairs,http://foreignaffairs.house.gov/,http://democrats.foreignaffairs.house.gov/,HSFA,,,FA,"Africa, Global Health, Global Human Rights, and International Organizations",16,,"5210 OHOB; Washington, DC 20515",(202) 226-7812,"2170 RHOB; Washington, DC 20515-6128",(202) 225-5021,http://foreignaffairs.house.gov/rss.xml,http://democrats.edworkforce.house.gov/rss.xml,"The House Committee on Foreign Affairs considers legislation that impacts the diplomatic community, which includes the Department of State, the Agency for International Development, the Peace Corps, the United Nations, and the enforcement of the Arms Export Control Act.",https://foreignaffairs.house.gov/about/
house,House Committee on Foreign Affairs,http://foreignaffairs.house.gov/,http://democrats.foreignaffairs.house.gov/,HSFA,,,FA,Asia and the Pacific,05,,"5190 OHOB; Washington, DC 20515",(202) 226-7825,"2170 RHOB; Washington, DC 20515-6128",(202) 225-5021,http://foreignaffairs.house.gov/rss.xml,http://democrats.edworkforce.house.gov/rss.xml,"The House Committee on Foreign Affairs considers legislation that impacts the diplomatic community, which includes the Department of State, the Agency for International Development, the Peace Corps, the United Nations, and the enforcement of the Arms Export Control Act.",https://foreignaffairs.house.gov/about/
house,House Committee on Foreign Affairs,http://foreignaffairs.house.gov/,http://democrats.foreignaffairs.house.gov/,HSFA,,,FA,"Europe, Eurasia, and Emerging Threats",14,,"5210 OHOB; Washington, DC 20515",(202) 226-6434,"2170 RHOB; Washington, DC 20515-6128",(202) 225-5021,http://foreignaffairs.house.gov/rss.xml,http://democrats.edworkforce.house.gov/rss.xml,"The House Committee on Foreign Affairs considers legislation that impacts the diplomatic community, which includes the Department of State, the Agency for International Development, the Peace Corps, the United Nations, and the enforcement of the Arms Export Control Act.",https://foreignaffairs.house.gov/about/
house,House Committee on Foreign Affairs,http://foreignaffairs.house.gov/,http://democrats.foreignaffairs.house.gov/,HSFA,,,FA,"Terrorism, Nonproliferation, and Trade",18,,"5100 OHOB; Washington, DC 20515",(202) 226-1500,"2170 RHOB; Washington, DC 20515-6128",(202) 225-5021,http://foreignaffairs.house.gov/rss.xml,http://democrats.edworkforce.house.gov/rss.xml,"The House Committee on Foreign Affairs considers legislation that impacts the diplomatic community, which includes the Department of State, the Agency for International Development, the Peace Corps, the United Nations, and the enforcement of the Arms Export Control Act.",https://foreignaffairs.house.gov/about/
house,House Committee on Foreign Affairs,http://foreignaffairs.house.gov/,http://democrats.foreignaffairs.house.gov/,HSFA,,,FA,The Middle East and North Africa,13,,"5220 OHOB; Washington, DC 20515",(202) 225-3345,"2170 RHOB; Washington, DC 20515-6128",(202) 225-5021,http://foreignaffairs.house.gov/rss.xml,http://democrats.edworkforce.house.gov/rss.xml,"The House Committee on Foreign Affairs considers legislation that impacts the diplomatic community, which includes the Department of State, the Agency for International Development, the Peace Corps, the United Nations, and the enforcement of the Arms Export Control Act.",https://foreignaffairs.house.gov/about/
house,House Committee on Foreign Affairs,http://foreignaffairs.house.gov/,http://democrats.foreignaffairs.house.gov/,HSFA,,,FA,The Western Hemisphere,07,,"5100 OHOB; Washington, DC 20515",(202) 226-9980,"2170 RHOB; Washington, DC 20515-6128",(202) 225-5021,http://foreignaffairs.house.gov/rss.xml,http://democrats.edworkforce.house.gov/rss.xml,"The House Committee on Foreign Affairs considers legislation that impacts the diplomatic community, which includes the Department of State, the Agency for International Development, the Peace Corps, the United Nations, and the enforcement of the Arms Export Control Act.",https://foreignaffairs.house.gov/about/
house,House Committee on Oversight and Government Reform,http://oversight.house.gov/,http://democrats.oversight.house.gov/,HSGO,,,GO,Information Technology,25,,"2157 RHOB; Washington, DC 20515",(202) 225-5074,"2157 RHOB; Washington, DC 20515-6143",(202) 225-5074,http://oversight.house.gov/feed/rss/,http://democrats.oversight.house.gov/rss.xml,"The House Committee on Oversight and Government Reform oversees the federal government and all of its agencies to ensure efficiency, effectiveness, and accountability. The Committee oversees government operations, health care, information technology, interior, energy and environment, national security, and intergovernmental affairs.",https://oversight.house.gov/about/
house,House Committee on Oversight and Government Reform,http://oversight.house.gov/,http://democrats.oversight.house.gov/,HSGO,,,GO,Government Operations,24,,"2157 RHOB; Washington, DC 20515",(202) 225-5074,"2157 RHOB; Washington, DC 20515-6143",(202) 225-5074,http://oversight.house.gov/feed/rss/,http://democrats.oversight.house.gov/rss.xml,"The House Committee on Oversight and Government Reform oversees the federal government and all of its agencies to ensure efficiency, effectiveness, and accountability. The Committee oversees government operations, health care, information technology, interior, energy and environment, national security, and intergovernmental affairs.",https://oversight.house.gov/about/
house,House Committee on Oversight and Government Reform,http://oversight.house.gov/,http://democrats.oversight.house.gov/,HSGO,,,GO,National Security,06,,"2157 RHOB; Washington, DC 20515",(202) 225-5074,"2157 RHOB; Washington, DC 20515-6143",(202) 225-5074,http://oversight.house.gov/feed/rss/,http://democrats.oversight.house.gov/rss.xml,"The House Committee on Oversight and Government Reform oversees the federal government and all of its agencies to ensure efficiency, effectiveness, and accountability. The Committee oversees government operations, health care, information technology, interior, energy and environment, national security, and intergovernmental affairs.",https://oversight.house.gov/about/
house,House Committee on Oversight and Government Reform,http://oversight.house.gov/,http://democrats.oversight.house.gov/,HSGO,,,GO,"Healthcare, Benefits, and Administrative Rules",27,,"2157 RHOB; Washington, DC 20515",(202) 225-5074,"2157 RHOB; Washington, DC 20515-6143",(202) 225-5074,http://oversight.house.gov/feed/rss/,http://democrats.oversight.house.gov/rss.xml,"The House Committee on Oversight and Government Reform oversees the federal government and all of its agencies to ensure efficiency, effectiveness, and accountability. The Committee oversees government operations, health care, information technology, interior, energy and environment, national security, and intergovernmental affairs.",https://oversight.house.gov/about/
house,House Committee on Oversight and Government Reform,http://oversight.house.gov/,http://democrats.oversight.house.gov/,HSGO,,,GO,"The Interior, Energy and Environment",28,,"2157 RHOB; Washington, DC 20515",(202) 225-5074,"2157 RHOB; Washington, DC 20515-6143",(202) 225-5074,http://oversight.house.gov/feed/rss/,http://democrats.oversight.house.gov/rss.xml,"The House Committee on Oversight and Government Reform oversees the federal government and all of its agencies to ensure efficiency, effectiveness, and accountability. The Committee oversees government operations, health care, information technology, interior, energy and environment, national security, and intergovernmental affairs.",https://oversight.house.gov/about/
house,House Committee on Oversight and Government Reform,http://oversight.house.gov/,http://democrats.oversight.house.gov/,HSGO,,,GO,Intergovernmental Affairs,29,,"2157 RHOB; Washington, DC 20515",(202) 225-5074,"2157 RHOB; Washington, DC 20515-6143",(202) 225-5074,http://oversight.house.gov/feed/rss/,http://democrats.oversight.house.gov/rss.xml,"The House Committee on Oversight and Government Reform oversees the federal government and all of its agencies to ensure efficiency, effectiveness, and accountability. The Committee oversees government operations, health care, information technology, interior, energy and environment, national security, and intergovernmental affairs.",https://oversight.house.gov/about/
house,House Committee on House Administration,http://cha.house.gov/,http://democrats.cha.house.gov/,HSHA,,,HA,,,,,,"1309 LHOB; Washington, DC 20515-6157",(202) 225-8281,http://cha.house.gov/rss.xml,http://democrats.cha.house.gov/rss.xml,The Committee on House Administration has legislative jurisdiction over the federal elections and the day-to-day operations of the House. The Committee's jurisdiction over federal elections requires it to consider proposals to amend federal election law and to monitor congressional elections across the United States. The Committee also sets budget authorizations for expenses of other House committees and members of Congress. It also oversees several federal organizations such as the Library of Congress and Smithsonian Institution.,https://cha.house.gov/about
house,House Committee on Homeland Security,http://homeland.house.gov/,http://chsdemocrats.house.gov/,HSHM,,,HM,Border and Maritime Security,11,,"176 FHOB; Washington, DC 20515",(202) 226-8417,"176 FHOB; Washington, DC 20515-6480",(202) 226-8417,http://homeland.house.gov/rss.xml,http://democrats.cha.house.gov/rss.xml,"The House Committee on Homeland Security has jurisdiction over matters related to national defense. It has six subcommittees on border and maritime security; counterterrorism and intelligence; cybersecurity and infrastructure protection; emergency preparedness, response, and communications; oversight and management efficiency; and transportation and protective security. The Committee was created in 2002 in the aftermath of the September 11th, 2001 attacks.",https://homeland.house.gov/subcommittee/full_committee/
house,House Committee on Homeland Security,http://homeland.house.gov/,http://chsdemocrats.house.gov/,HSHM,,,HM,"Emergency Preparedness, Response, and Communications",12,,"176 FHOB; Washington, DC 20515",(202) 226-8417,"176 FHOB; Washington, DC 20515-6480",(202) 226-8417,http://homeland.house.gov/rss.xml,http://democrats.cha.house.gov/rss.xml,"The House Committee on Homeland Security has jurisdiction over matters related to national defense. It has six subcommittees on border and maritime security; counterterrorism and intelligence; cybersecurity and infrastructure protection; emergency preparedness, response, and communications; oversight and management efficiency; and transportation and protective security. The Committee was created in 2002 in the aftermath of the September 11th, 2001 attacks.",https://homeland.house.gov/subcommittee/full_committee/
house,House Committee on Homeland Security,http://homeland.house.gov/,http://chsdemocrats.house.gov/,HSHM,,,HM,Cybersecurity and Infrastructure Protection,08,,"176 FHOB; Washington, DC 20515",(202) 226-8417,"176 FHOB; Washington, DC 20515-6480",(202) 226-8417,http://homeland.house.gov/rss.xml,http://democrats.cha.house.gov/rss.xml,"The House Committee on Homeland Security has jurisdiction over matters related to national defense. It has six subcommittees on border and maritime security; counterterrorism and intelligence; cybersecurity and infrastructure protection; emergency preparedness, response, and communications; oversight and management efficiency; and transportation and protective security. The Committee was created in 2002 in the aftermath of the September 11th, 2001 attacks.",https://homeland.house.gov/subcommittee/full_committee/
house,House Committee on Homeland Security,http://homeland.house.gov/,http://chsdemocrats.house.gov/,HSHM,,,HM,Counterterrorism and Intelligence,05,,"176 FHOB; Washington, DC 20515",(202) 226-8417,"176 FHOB; Washington, DC 20515-6480",(202) 226-8417,http://homeland.house.gov/rss.xml,http://democrats.cha.house.gov/rss.xml,"The House Committee on Homeland Security has jurisdiction over matters related to national defense. It has six subcommittees on border and maritime security; counterterrorism and intelligence; cybersecurity and infrastructure protection; emergency preparedness, response, and communications; oversight and management efficiency; and transportation and protective security. The Committee was created in 2002 in the aftermath of the September 11th, 2001 attacks.",https://homeland.house.gov/subcommittee/full_committee/
house,House Committee on Homeland Security,http://homeland.house.gov/,http://chsdemocrats.house.gov/,HSHM,,,HM,Oversight and Management Efficiency,09,,"176 FHOB; Washington, DC 20515",(202) 226-8417,"176 FHOB; Washington, DC 20515-6480",(202) 226-8417,http://homeland.house.gov/rss.xml,http://democrats.cha.house.gov/rss.xml,"The House Committee on Homeland Security has jurisdiction over matters related to national defense. It has six subcommittees on border and maritime security; counterterrorism and intelligence; cybersecurity and infrastructure protection; emergency preparedness, response, and communications; oversight and management efficiency; and transportation and protective security. The Committee was created in 2002 in the aftermath of the September 11th, 2001 attacks.",https://homeland.house.gov/subcommittee/full_committee/
house,House Committee on Homeland Security,http://homeland.house.gov/,http://chsdemocrats.house.gov/,HSHM,,,HM,Transportation and Protective Security,07,,"176 FHOB; Washington, DC 20515",(202) 226-8417,"176 FHOB; Washington, DC 20515-6480",(202) 226-8417,http://homeland.house.gov/rss.xml,http://democrats.cha.house.gov/rss.xml,"The House Committee on Homeland Security has jurisdiction over matters related to national defense. It has six subcommittees on border and maritime security; counterterrorism and intelligence; cybersecurity and infrastructure protection; emergency preparedness, response, and communications; oversight and management efficiency; and transportation and protective security. The Committee was created in 2002 in the aftermath of the September 11th, 2001 attacks.",https://homeland.house.gov/subcommittee/full_committee/
house,House Committee on Energy and Commerce,http://energycommerce.house.gov/,http://democrats.energycommerce.house.gov/,HSIF,,,IF,Digital Commerce and Consumer Protection,17,,"2125 RHOB; Washington, DC 20515",(202) 225-2927,"2125 RHOB; Washington, DC 20515-6115",(202) 225-2927,http://energycommerce.house.gov/rss.aspx,http://democrats.cha.house.gov/rss.xml,"The House Committee on Energy and Commerce has legislative jurisdiction on matters related to telecommunications, consumer protection, food and drug safety, public health research, environmental quality, energy policy, and interstate and foreign commerce. It oversees multiple cabinet-level Departments and independent agencies, including the Departments of Energy, Health and Human Services, Commerce, and Transportation, as well as the Environmental Protection Agency, the Federal Trade Commission, the Food and Drug Administration, and the Federal Communications Commission.",https://energycommerce.house.gov/committee-history/
house,House Committee on Energy and Commerce,http://energycommerce.house.gov/,http://democrats.energycommerce.house.gov/,HSIF,,,IF,Communications and Technology,16,,"2125 RHOB; Washington, DC 20515",(202) 225-2927,"2125 RHOB; Washington, DC 20515-6115",(202) 225-2927,http://energycommerce.house.gov/rss.aspx,http://democrats.cha.house.gov/rss.xml,"The House Committee on Energy and Commerce has legislative jurisdiction on matters related to telecommunications, consumer protection, food and drug safety, public health research, environmental quality, energy policy, and interstate and foreign commerce. It oversees multiple cabinet-level Departments and independent agencies, including the Departments of Energy, Health and Human Services, Commerce, and Transportation, as well as the Environmental Protection Agency, the Federal Trade Commission, the Food and Drug Administration, and the Federal Communications Commission.",https://energycommerce.house.gov/committee-history/
house,House Committee on Energy and Commerce,http://energycommerce.house.gov/,http://democrats.energycommerce.house.gov/,HSIF,,,IF,Energy,03,,"2125 RHOB; Washington, DC 20515",(202) 225-2927,"2125 RHOB; Washington, DC 20515-6115",(202) 225-2927,http://energycommerce.house.gov/rss.aspx,http://democrats.cha.house.gov/rss.xml,"The House Committee on Energy and Commerce has legislative jurisdiction on matters related to telecommunications, consumer protection, food and drug safety, public health research, environmental quality, energy policy, and interstate and foreign commerce. It oversees multiple cabinet-level Departments and independent agencies, including the Departments of Energy, Health and Human Services, Commerce, and Transportation, as well as the Environmental Protection Agency, the Federal Trade Commission, the Food and Drug Administration, and the Federal Communications Commission.",https://energycommerce.house.gov/committee-history/
house,House Committee on Energy and Commerce,http://energycommerce.house.gov/,http://democrats.energycommerce.house.gov/,HSIF,,,IF,Health,14,,"2125 RHOB; Washington, DC 20515",(202) 225-2927,"2125 RHOB; Washington, DC 20515-6115",(202) 225-2927,http://energycommerce.house.gov/rss.aspx,http://democrats.cha.house.gov/rss.xml,"The House Committee on Energy and Commerce has legislative jurisdiction on matters related to telecommunications, consumer protection, food and drug safety, public health research, environmental quality, energy policy, and interstate and foreign commerce. It oversees multiple cabinet-level Departments and independent agencies, including the Departments of Energy, Health and Human Services, Commerce, and Transportation, as well as the Environmental Protection Agency, the Federal Trade Commission, the Food and Drug Administration, and the Federal Communications Commission.",https://energycommerce.house.gov/committee-history/
house,House Committee on Energy and Commerce,http://energycommerce.house.gov/,http://democrats.energycommerce.house.gov/,HSIF,,,IF,Oversight and Investigations,02,,"2125 RHOB; Washington, DC 20515",(202) 225-2927,"2125 RHOB; Washington, DC 20515-6115",(202) 225-2927,http://energycommerce.house.gov/rss.aspx,http://democrats.cha.house.gov/rss.xml,"The House Committee on Energy and Commerce has legislative jurisdiction on matters related to telecommunications, consumer protection, food and drug safety, public health research, environmental quality, energy policy, and interstate and foreign commerce. It oversees multiple cabinet-level Departments and independent agencies, including the Departments of Energy, Health and Human Services, Commerce, and Transportation, as well as the Environmental Protection Agency, the Federal Trade Commission, the Food and Drug Administration, and the Federal Communications Commission.",https://energycommerce.house.gov/committee-history/
house,House Committee on Energy and Commerce,http://energycommerce.house.gov/,http://democrats.energycommerce.house.gov/,HSIF,,,IF,Environment,18,,"2125 RHOB; Washington, DC 20515",(202) 225-2927,"2125 RHOB; Washington, DC 20515-6115",(202) 225-2927,http://energycommerce.house.gov/rss.aspx,http://democrats.cha.house.gov/rss.xml,"The House Committee on Energy and Commerce has legislative jurisdiction on matters related to telecommunications, consumer protection, food and drug safety, public health research, environmental quality, energy policy, and interstate and foreign commerce. It oversees multiple cabinet-level Departments and independent agencies, including the Departments of Energy, Health and Human Services, Commerce, and Transportation, as well as the Environmental Protection Agency, the Federal Trade Commission, the Food and Drug Administration, and the Federal Communications Commission.",https://energycommerce.house.gov/committee-history/
house,House Committee on Natural Resources,http://naturalresources.house.gov/,http://democrats.naturalresources.house.gov/,HSII,,,II,Energy and Mineral Resources,06,,"1522 LHOB; Washington, DC 20515",(202) 225-9297,"1324 LHOB; Washington, DC 20515-6201",(202) 225-2761,http://naturalresources.house.gov/news.xml,http://democrats.naturalresources.house.gov/rss.xml,"The House Committee on Natural Resources considers legislation about American energy production, mineral lands and mining, fisheries and wildlife, public lands, oceans, Native Americans, irrigation and reclamation.",https://naturalresources.house.gov/about/
house,House Committee on Natural Resources,http://naturalresources.house.gov/,http://democrats.naturalresources.house.gov/,HSII,,,II,Federal Lands,10,,"1332 LHOB; Washington, DC 20515",(202) 226-7736,"1324 LHOB; Washington, DC 20515-6201",(202) 225-2761,http://naturalresources.house.gov/news.xml,http://democrats.naturalresources.house.gov/rss.xml,"The House Committee on Natural Resources considers legislation about American energy production, mineral lands and mining, fisheries and wildlife, public lands, oceans, Native Americans, irrigation and reclamation.",https://naturalresources.house.gov/about/
house,House Committee on Natural Resources,http://naturalresources.house.gov/,http://democrats.naturalresources.house.gov/,HSII,,,II,"Water, Power and Oceans",13,,"4120 OHOB; Washington, DC 20515",(202) 225-8331,"1324 LHOB; Washington, DC 20515-6201",(202) 225-2761,http://naturalresources.house.gov/news.xml,http://democrats.naturalresources.house.gov/rss.xml,"The House Committee on Natural Resources considers legislation about American energy production, mineral lands and mining, fisheries and wildlife, public lands, oceans, Native Americans, irrigation and reclamation.",https://naturalresources.house.gov/about/
house,House Committee on Natural Resources,http://naturalresources.house.gov/,http://democrats.naturalresources.house.gov/,HSII,,,II,"Fisheries, Wildlife, Oceans and Insular Affairs",22,,"140 CHOB; Washington, DC 20515",(202) 226-0200,"1324 LHOB; Washington, DC 20515-6201",(202) 225-2761,http://naturalresources.house.gov/news.xml,http://democrats.naturalresources.house.gov/rss.xml,"The House Committee on Natural Resources considers legislation about American energy production, mineral lands and mining, fisheries and wildlife, public lands, oceans, Native Americans, irrigation and reclamation.",https://naturalresources.house.gov/about/
house,House Committee on Natural Resources,http://naturalresources.house.gov/,http://democrats.naturalresources.house.gov/,HSII,,,II,"Indian, Insular and Alaska Native Affairs",24,,"4450 OHOB; Washington, DC 20515",(202) 226-9725,"1324 LHOB; Washington, DC 20515-6201",(202) 225-2761,http://naturalresources.house.gov/news.xml,http://democrats.naturalresources.house.gov/rss.xml,"The House Committee on Natural Resources considers legislation about American energy production, mineral lands and mining, fisheries and wildlife, public lands, oceans, Native Americans, irrigation and reclamation.",https://naturalresources.house.gov/about/
house,House Committee on Natural Resources,http://naturalresources.house.gov/,http://democrats.naturalresources.house.gov/,HSII,,,II,Oversight and Investigations,15,,"4170 OHOB; Washington, DC 20515",(202) 225-7107,"1324 LHOB; Washington, DC 20515-6201",(202) 225-2761,http://naturalresources.house.gov/news.xml,http://democrats.naturalresources.house.gov/rss.xml,"The House Committee on Natural Resources considers legislation about American energy production, mineral lands and mining, fisheries and wildlife, public lands, oceans, Native Americans, irrigation and reclamation.",https://naturalresources.house.gov/about/
house,House Permanent Select Committee on Intelligence,http://intelligence.house.gov/,http://democrats.intelligence.house.gov/,HLIG,,,IG,Oversight and Investigations,09,,"HVC304 CAPITOL; Washington, DC 20515",(202) 225-4121,"HVC304 CAPITOL; Washington, DC 20515-6415",(202) 225-4121,http://intelligence.house.gov/rss.xml,http://democrats.intelligence.house.gov/rss.xml,"The United States House Permanent Select Committee on Intelligence (HPSCI) is a committee of the United States House of Representatives, currently chaired by Congressman Devin Nunes (California). Created in 1977, HPSCI is charged with oversight of the United States Intelligence Community—which includes the intelligence and intelligence-related activities of the following seventeen elements of the U.S. Government—and the Military Intelligence Program.",https://intelligence.house.gov/about/history-and-jurisdiction.htm
house,House Permanent Select Committee on Intelligence,http://intelligence.house.gov/,http://democrats.intelligence.house.gov/,HLIG,,,IG,Technical and Tactical Intelligence,05,,"HVC304 CAPITOL; Washington, DC 20515",(202) 225-4121,"HVC304 CAPITOL; Washington, DC 20515-6415",(202) 225-4121,http://intelligence.house.gov/rss.xml,http://democrats.intelligence.house.gov/rss.xml,"The United States House Permanent Select Committee on Intelligence (HPSCI) is a committee of the United States House of Representatives, currently chaired by Congressman Devin Nunes (California). Created in 1977, HPSCI is charged with oversight of the United States Intelligence Community—which includes the intelligence and intelligence-related activities of the following seventeen elements of the U.S. Government—and the Military Intelligence Program.",https://intelligence.house.gov/about/history-and-jurisdiction.htm
house,House Permanent Select Committee on Intelligence,http://intelligence.house.gov/,http://democrats.intelligence.house.gov/,HLIG,,,IG,"Terrorism, Human Intelligence, Analysis, and Counterintelligence",08,,"HVC304 CAPITOL; Washington, DC 20515",(202) 225-4121,"HVC304 CAPITOL; Washington, DC 20515-6415",(202) 225-4121,http://intelligence.house.gov/rss.xml,http://democrats.intelligence.house.gov/rss.xml,"The United States House Permanent Select Committee on Intelligence (HPSCI) is a committee of the United States House of Representatives, currently chaired by Congressman Devin Nunes (California). Created in 1977, HPSCI is charged with oversight of the United States Intelligence Community—which includes the intelligence and intelligence-related activities of the following seventeen elements of the U.S. Government—and the Military Intelligence Program.",https://intelligence.house.gov/about/history-and-jurisdiction.htm
house,House Permanent Select Committee on Intelligence,http://intelligence.house.gov/,http://democrats.intelligence.house.gov/,HLIG,,,IG,Central Intelligence Agency,01,,"HVC304 CAPITOL; Washington, DC 20515-6415",(202) 225-4121,"HVC304 CAPITOL; Washington, DC 20515-6415",(202) 225-4121,http://intelligence.house.gov/rss.xml,http://democrats.intelligence.house.gov/rss.xml,"The United States House Permanent Select Committee on Intelligence (HPSCI) is a committee of the United States House of Representatives, currently chaired by Congressman Devin Nunes (California). Created in 1977, HPSCI is charged with oversight of the United States Intelligence Community—which includes the intelligence and intelligence-related activities of the following seventeen elements of the U.S. Government—and the Military Intelligence Program.",https://intelligence.house.gov/about/history-and-jurisdiction.htm
house,House Permanent Select Committee on Intelligence,http://intelligence.house.gov/,http://democrats.intelligence.house.gov/,HLIG,,,IG,National Security Agency and Cybersecurity,02,,"HVC304 CAPITOL; Washington, DC 20515-6415",(202) 225-4121,"HVC304 CAPITOL; Washington, DC 20515-6415",(202) 225-4121,http://intelligence.house.gov/rss.xml,http://democrats.intelligence.house.gov/rss.xml,"The United States House Permanent Select Committee on Intelligence (HPSCI) is a committee of the United States House of Representatives, currently chaired by Congressman Devin Nunes (California). Created in 1977, HPSCI is charged with oversight of the United States Intelligence Community—which includes the intelligence and intelligence-related activities of the following seventeen elements of the U.S. Government—and the Military Intelligence Program.",https://intelligence.house.gov/about/history-and-jurisdiction.htm
house,House Permanent Select Committee on Intelligence,http://intelligence.house.gov/,http://democrats.intelligence.house.gov/,HLIG,,,IG,Emerging Threats,03,,"HVC304 CAPITOL; Washington, DC 20515-6415",(202) 225-4121,"HVC304 CAPITOL; Washington, DC 20515-6415",(202) 225-4121,http://intelligence.house.gov/rss.xml,http://democrats.intelligence.house.gov/rss.xml,"The United States House Permanent Select Committee on Intelligence (HPSCI) is a committee of the United States House of Representatives, currently chaired by Congressman Devin Nunes (California). Created in 1977, HPSCI is charged with oversight of the United States Intelligence Community—which includes the intelligence and intelligence-related activities of the following seventeen elements of the U.S. Government—and the Military Intelligence Program.",https://intelligence.house.gov/about/history-and-jurisdiction.htm
house,House Permanent Select Committee on Intelligence,http://intelligence.house.gov/,http://democrats.intelligence.house.gov/,HLIG,,,IG,Department of Defense Intelligence and Overhead Architecture,04,,"HVC304 CAPITOL; Washington, DC 20515-6415",(202) 225-4121,"HVC304 CAPITOL; Washington, DC 20515-6415",(202) 225-4121,http://intelligence.house.gov/rss.xml,http://democrats.intelligence.house.gov/rss.xml,"The United States House Permanent Select Committee on Intelligence (HPSCI) is a committee of the United States House of Representatives, currently chaired by Congressman Devin Nunes (California). Created in 1977, HPSCI is charged with oversight of the United States Intelligence Community—which includes the intelligence and intelligence-related activities of the following seventeen elements of the U.S. Government—and the Military Intelligence Program.",https://intelligence.house.gov/about/history-and-jurisdiction.htm
house,House Committee on the Judiciary,http://judiciary.house.gov/,http://democrats.judiciary.house.gov/,HSJU,,,JU,The Constitution and Civil Justice,10,,"362 FHOB; Washington, DC 20515",(202) 225-2825,"2138 RHOB; Washington, DC 20515-6216",(202) 225-3951,http://intelligence.house.gov/rss.xml,http://democrats.judiciary.house.gov/rss.xml,"The Committee on the Judiciary has jurisdiction over matters relating to the administration of justice in federal courts, administrative bodies, and law enforcement agencies. Its role in impeachment proceedings has also brought it much attention.  The committee’s jurisdiction also includes a range of issues such as bankruptcy, espionage, terrorism, the protection of civil liberties, constitutional amendments, and more. The Committee oversees the Departments of Justice and Homeland Security.",https://judiciary.house.gov/about-the-committee/
house,House Committee on the Judiciary,http://judiciary.house.gov/,http://democrats.judiciary.house.gov/,HSJU,,,JU,"Courts, Intellectual Property, and the Internet",03,,"6310 OHOB; Washington, DC 20515",(202) 225-5741,"2138 RHOB; Washington, DC 20515-6216",(202) 225-3951,http://intelligence.house.gov/rss.xml,http://democrats.judiciary.house.gov/rss.xml,"The Committee on the Judiciary has jurisdiction over matters relating to the administration of justice in federal courts, administrative bodies, and law enforcement agencies. Its role in impeachment proceedings has also brought it much attention.  The committee’s jurisdiction also includes a range of issues such as bankruptcy, espionage, terrorism, the protection of civil liberties, constitutional amendments, and more. The Committee oversees the Departments of Justice and Homeland Security.",https://judiciary.house.gov/about-the-committee/
house,House Committee on the Judiciary,http://judiciary.house.gov/,http://democrats.judiciary.house.gov/,HSJU,,,JU,"Crime, Terrorism, Homeland Security, and Investigations",08,,"6340 OHOB; Washington, DC 20515",(202) 225-5727,"2138 RHOB; Washington, DC 20515-6216",(202) 225-3951,http://intelligence.house.gov/rss.xml,http://democrats.judiciary.house.gov/rss.xml,"The Committee on the Judiciary has jurisdiction over matters relating to the administration of justice in federal courts, administrative bodies, and law enforcement agencies. Its role in impeachment proceedings has also brought it much attention.  The committee’s jurisdiction also includes a range of issues such as bankruptcy, espionage, terrorism, the protection of civil liberties, constitutional amendments, and more. The Committee oversees the Departments of Justice and Homeland Security.",https://judiciary.house.gov/about-the-committee/
house,House Committee on the Judiciary,http://judiciary.house.gov/,http://democrats.judiciary.house.gov/,HSJU,,,JU,Immigration and Border Security,01,,"6320 OHOB; Washington, DC 20515",(202) 225-3926,"2138 RHOB; Washington, DC 20515-6216",(202) 225-3951,http://intelligence.house.gov/rss.xml,http://democrats.judiciary.house.gov/rss.xml,"The Committee on the Judiciary has jurisdiction over matters relating to the administration of justice in federal courts, administrative bodies, and law enforcement agencies. Its role in impeachment proceedings has also brought it much attention.  The committee’s jurisdiction also includes a range of issues such as bankruptcy, espionage, terrorism, the protection of civil liberties, constitutional amendments, and more. The Committee oversees the Departments of Justice and Homeland Security.",https://judiciary.house.gov/about-the-committee/
house,House Committee on the Judiciary,http://judiciary.house.gov/,http://democrats.judiciary.house.gov/,HSJU,,,JU,"Regulatory Reform, Commercial and Antitrust Law",05,,"6240 OHOB; Washington, DC 20515",(202) 226-7680,"2138 RHOB; Washington, DC 20515-6216",(202) 225-3951,http://intelligence.house.gov/rss.xml,http://democrats.judiciary.house.gov/rss.xml,"The Committee on the Judiciary has jurisdiction over matters relating to the administration of justice in federal courts, administrative bodies, and law enforcement agencies. Its role in impeachment proceedings has also brought it much attention.  The committee’s jurisdiction also includes a range of issues such as bankruptcy, espionage, terrorism, the protection of civil liberties, constitutional amendments, and more. The Committee oversees the Departments of Justice and Homeland Security.",https://judiciary.house.gov/about-the-committee/
house,House Committee on Transportation and Infrastructure,http://transportation.house.gov/,http://democrats.transportation.house.gov/,HSPW,,,PW,Aviation,05,,"2251 RHOB; Washington, DC 20515",(202) 226-3220,"2251 RHOB; Washington, DC 20515-6256",(202) 225-9446,http://transportation.house.gov/rss.xml,http://democrats.transportation.house.gov/rss.xml,"The Transportation and Infrastructure Committee has jurisdiction over all modes of transportation: aviation, maritime and waterborne transportation, highways, bridges, mass transit, and railroads. The Committee also has jurisdiction over other aspects of our national infrastructure, such as clean water and waste water management, the transport of resources by pipeline, flood damage reduction, the management of federally owned real estate and public buildings, the development of economically depressed rural and urban areas, disaster preparedness and response, and hazardous materials transportation.",https://transportation.house.gov/about/history.htm
house,House Committee on Transportation and Infrastructure,http://transportation.house.gov/,http://democrats.transportation.house.gov/,HSPW,,,PW,Coast Guard and Maritime Transportation,07,,"507 FHOB; Washington, DC 20515",(202) 226-3552,"2251 RHOB; Washington, DC 20515-6256",(202) 225-9446,http://transportation.house.gov/rss.xml,http://democrats.transportation.house.gov/rss.xml,"The Transportation and Infrastructure Committee has jurisdiction over all modes of transportation: aviation, maritime and waterborne transportation, highways, bridges, mass transit, and railroads. The Committee also has jurisdiction over other aspects of our national infrastructure, such as clean water and waste water management, the transport of resources by pipeline, flood damage reduction, the management of federally owned real estate and public buildings, the development of economically depressed rural and urban areas, disaster preparedness and response, and hazardous materials transportation.",https://transportation.house.gov/about/history.htm
house,House Committee on Transportation and Infrastructure,http://transportation.house.gov/,http://democrats.transportation.house.gov/,HSPW,,,PW,"Economic Development, Public Buildings, and Emergency Management",13,,"586 FHOB; Washington, DC 20515",(202) 225-3014,"2251 RHOB; Washington, DC 20515-6256",(202) 225-9446,http://transportation.house.gov/rss.xml,http://democrats.transportation.house.gov/rss.xml,"The Transportation and Infrastructure Committee has jurisdiction over all modes of transportation: aviation, maritime and waterborne transportation, highways, bridges, mass transit, and railroads. The Committee also has jurisdiction over other aspects of our national infrastructure, such as clean water and waste water management, the transport of resources by pipeline, flood damage reduction, the management of federally owned real estate and public buildings, the development of economically depressed rural and urban areas, disaster preparedness and response, and hazardous materials transportation.",https://transportation.house.gov/about/history.htm
house,House Committee on Transportation and Infrastructure,http://transportation.house.gov/,http://democrats.transportation.house.gov/,HSPW,,,PW,Highways and Transit,12,,"2251 RHOB; Washington, DC 20515",(202) 225-6715,"2251 RHOB; Washington, DC 20515-6256",(202) 225-9446,http://transportation.house.gov/rss.xml,http://democrats.transportation.house.gov/rss.xml,"The Transportation and Infrastructure Committee has jurisdiction over all modes of transportation: aviation, maritime and waterborne transportation, highways, bridges, mass transit, and railroads. The Committee also has jurisdiction over other aspects of our national infrastructure, such as clean water and waste water management, the transport of resources by pipeline, flood damage reduction, the management of federally owned real estate and public buildings, the development of economically depressed rural and urban areas, disaster preparedness and response, and hazardous materials transportation.",https://transportation.house.gov/about/history.htm
house,House Committee on Transportation and Infrastructure,http://transportation.house.gov/,http://democrats.transportation.house.gov/,HSPW,,,PW,"Railroads, Pipelines, and Hazardous Materials",14,,"2029 RHOB; Washington, DC 20515",(202) 226-0727,"2251 RHOB; Washington, DC 20515-6256",(202) 225-9446,http://transportation.house.gov/rss.xml,http://democrats.transportation.house.gov/rss.xml,"The Transportation and Infrastructure Committee has jurisdiction over all modes of transportation: aviation, maritime and waterborne transportation, highways, bridges, mass transit, and railroads. The Committee also has jurisdiction over other aspects of our national infrastructure, such as clean water and waste water management, the transport of resources by pipeline, flood damage reduction, the management of federally owned real estate and public buildings, the development of economically depressed rural and urban areas, disaster preparedness and response, and hazardous materials transportation.",https://transportation.house.gov/about/history.htm
house,House Committee on Transportation and Infrastructure,http://transportation.house.gov/,http://democrats.transportation.house.gov/,HSPW,,,PW,Water Resources and Environment,02,,"585 FHOB; Washington, DC 20515",(202) 225-4360,"2251 RHOB; Washington, DC 20515-6256",(202) 225-9446,http://transportation.house.gov/rss.xml,http://democrats.transportation.house.gov/rss.xml,"The Transportation and Infrastructure Committee has jurisdiction over all modes of transportation: aviation, maritime and waterborne transportation, highways, bridges, mass transit, and railroads. The Committee also has jurisdiction over other aspects of our national infrastructure, such as clean water and waste water management, the transport of resources by pipeline, flood damage reduction, the management of federally owned real estate and public buildings, the development of economically depressed rural and urban areas, disaster preparedness and response, and hazardous materials transportation.",https://transportation.house.gov/about/history.htm
house,House Committee on Rules,http://rules.house.gov/,http://democrats.rules.house.gov/,HSRU,,,RU,Legislative and Budget Process,02,,"H312 CAPITOL; Washington, DC 20515",(202) 225-9191,"H312 CAPITOL; Washington, DC 20515-6269",(202) 225-9191,http://transportation.house.gov/rss.xml,http://democrats.rules.house.gov/rss.xml,"The House Committee on Rules is commonly known as “The Speaker’s Committee” because it is the mechanism that the Speaker uses to maintain control of the House Floor. Because of the vast power wielded by the Rules Committee, its ratio has traditionally been weighted in favor of the majority party. The Committee provides the terms and conditions of debate on any measure or matter through Special Rules. The Committee also considers original jurisdiction measures, which commonly represent changes to the standing rules of the House, or measures that contain special rules, such as the expedited procedures in trade legislation.",https://rules.house.gov/about
house,House Committee on Rules,http://rules.house.gov/,http://democrats.rules.house.gov/,HSRU,,,RU,Rules and Organization of the House,04,,"H312 CAPITOL; Washington, DC 20515",(202) 225-9191,"H312 CAPITOL; Washington, DC 20515-6269",(202) 225-9191,http://transportation.house.gov/rss.xml,http://democrats.rules.house.gov/rss.xml,"The House Committee on Rules is commonly known as “The Speaker’s Committee” because it is the mechanism that the Speaker uses to maintain control of the House Floor. Because of the vast power wielded by the Rules Committee, its ratio has traditionally been weighted in favor of the majority party. The Committee provides the terms and conditions of debate on any measure or matter through Special Rules. The Committee also considers original jurisdiction measures, which commonly represent changes to the standing rules of the House, or measures that contain special rules, such as the expedited procedures in trade legislation.",https://rules.house.gov/about
house,House Committee on Small Business,http://smallbusiness.house.gov/,http://democrats.smallbusiness.house.gov/,HSSM,,,SM,Contracting and Workforce,23,,"2361 RHOB; Washington, DC 20515",(202) 225-5821,"2361 RHOB; Washington, DC 20515-6315",(202) 225-5821,http://smallbusiness.house.gov/news/rss.aspx,http://democrats.smallbusiness.house.gov/rss.xml,"The House Small Business Committee was established to protect and assist small businesses.  As such, the Committee has jurisdiction over matters related to small business financial aid, regulatory flexibility, and paperwork reduction. Additionally, the House Small Business Committee has  oversight and legislative authority over the Small Business Administration (SBA) and its programs.",https://smallbusiness.house.gov/about/rulesandjurisdiction.htm
house,House Committee on Small Business,http://smallbusiness.house.gov/,http://democrats.smallbusiness.house.gov/,HSSM,,,SM,"Investigations, Oversight and Regulations",24,,"2361 RHOB; Washington, DC 20515",(202) 225-5821,"2361 RHOB; Washington, DC 20515-6315",(202) 225-5821,http://smallbusiness.house.gov/news/rss.aspx,http://democrats.smallbusiness.house.gov/rss.xml,"The House Small Business Committee was established to protect and assist small businesses.  As such, the Committee has jurisdiction over matters related to small business financial aid, regulatory flexibility, and paperwork reduction. Additionally, the House Small Business Committee has  oversight and legislative authority over the Small Business Administration (SBA) and its programs.",https://smallbusiness.house.gov/about/rulesandjurisdiction.htm
house,House Committee on Small Business,http://smallbusiness.house.gov/,http://democrats.smallbusiness.house.gov/,HSSM,,,SM,"Agriculture, Energy and Trade",25,,"2361 RHOB; Washington, DC 20515",(202) 225-5821,"2361 RHOB; Washington, DC 20515-6315",(202) 225-5821,http://smallbusiness.house.gov/news/rss.aspx,http://democrats.smallbusiness.house.gov/rss.xml,"The House Small Business Committee was established to protect and assist small businesses.  As such, the Committee has jurisdiction over matters related to small business financial aid, regulatory flexibility, and paperwork reduction. Additionally, the House Small Business Committee has  oversight and legislative authority over the Small Business Administration (SBA) and its programs.",https://smallbusiness.house.gov/about/rulesandjurisdiction.htm
house,House Committee on Small Business,http://smallbusiness.house.gov/,http://democrats.smallbusiness.house.gov/,HSSM,,,SM,Health and Technology,26,,"2361 RHOB; Washington, DC 20515",(202) 225-5821,"2361 RHOB; Washington, DC 20515-6315",(202) 225-5821,http://smallbusiness.house.gov/news/rss.aspx,http://democrats.smallbusiness.house.gov/rss.xml,"The House Small Business Committee was established to protect and assist small businesses.  As such, the Committee has jurisdiction over matters related to small business financial aid, regulatory flexibility, and paperwork reduction. Additionally, the House Small Business Committee has  oversight and legislative authority over the Small Business Administration (SBA) and its programs.",https://smallbusiness.house.gov/about/rulesandjurisdiction.htm
house,House Committee on Small Business,http://smallbusiness.house.gov/,http://democrats.smallbusiness.house.gov/,HSSM,,,SM,"Economic Growth, Tax and Capital Access",27,,"2361 RHOB; Washington, DC 20515",(202) 225-5821,"2361 RHOB; Washington, DC 20515-6315",(202) 225-5821,http://smallbusiness.house.gov/news/rss.aspx,http://democrats.smallbusiness.house.gov/rss.xml,"The House Small Business Committee was established to protect and assist small businesses.  As such, the Committee has jurisdiction over matters related to small business financial aid, regulatory flexibility, and paperwork reduction. Additionally, the House Small Business Committee has  oversight and legislative authority over the Small Business Administration (SBA) and its programs.",https://smallbusiness.house.gov/about/rulesandjurisdiction.htm
house,House Committee on Ethics,http://ethics.house.gov/,http://democrats.smallbusiness.house.gov/,HSSO,,,SO,,,,,,"1015 LHOB; Washington, DC 20515-6328",(202) 225-7103,http://ethics.house.gov/rss.xml,http://democrats.smallbusiness.house.gov/rss.xml,"The House Committee on Ethics has the jurisdiction to administer travel, gift, financial disclosure, outside income, and other regulations; advise members and staff; issue advisory opinions and investigate potential ethics violations. The Committee is the only standing committee of the House whose membership is evenly divided between each political party. The Committee includes five members of each party. Also, unlike other committees, the day-to-day work of the Committee on Ethics is conducted by a staff that is nonpartisan by rule.",https://ethics.house.gov/about/committee-history
house,"House Committee on Science, Space, and Technology",http://science.house.gov/,http://democrats.science.house.gov/,HSSY,,,SY,Energy,20,,"2319 RHOB; Washington, DC 20515",(202) 225-6371,"2321 RHOB; Washington, DC 20515-6301",(202) 225-6371,http://science.house.gov/rss.xml,http://democrats.science.house.gov/rss.xml,"The Committee on Science, Space, and Technology has a jurisdiction over a range of matters related to energy research and development, federally owned or operated non-military energy laboratories, astronautical research and development, civil aviation, environmental research and development; marine research, and more. The Committee oversees the National Institute of Standards and Technology, National Aeronautics and Space Administration, National Science Foundation, and National Weather Service. It also reviews laws, programs, and Government activities relating to non-military research and development to report back to the House.",https://science.house.gov/about/jurisdiction
house,"House Committee on Science, Space, and Technology",http://science.house.gov/,http://democrats.science.house.gov/,HSSY,,,SY,Oversight,21,,"2321 RHOB; Washington, DC 20515",(202) 225-6371,"2321 RHOB; Washington, DC 20515-6301",(202) 225-6371,http://science.house.gov/rss.xml,http://democrats.science.house.gov/rss.xml,"The Committee on Science, Space, and Technology has a jurisdiction over a range of matters related to energy research and development, federally owned or operated non-military energy laboratories, astronautical research and development, civil aviation, environmental research and development; marine research, and more. The Committee oversees the National Institute of Standards and Technology, National Aeronautics and Space Administration, National Science Foundation, and National Weather Service. It also reviews laws, programs, and Government activities relating to non-military research and development to report back to the House.",https://science.house.gov/about/jurisdiction
house,"House Committee on Science, Space, and Technology",http://science.house.gov/,http://democrats.science.house.gov/,HSSY,,,SY,Space,16,,"4220 OHOB; Washington, DC 20515",(202) 225-6371,"2321 RHOB; Washington, DC 20515-6301",(202) 225-6371,http://science.house.gov/rss.xml,http://democrats.science.house.gov/rss.xml,"The Committee on Science, Space, and Technology has a jurisdiction over a range of matters related to energy research and development, federally owned or operated non-military energy laboratories, astronautical research and development, civil aviation, environmental research and development; marine research, and more. The Committee oversees the National Institute of Standards and Technology, National Aeronautics and Space Administration, National Science Foundation, and National Weather Service. It also reviews laws, programs, and Government activities relating to non-military research and development to report back to the House.",https://science.house.gov/about/jurisdiction
house,"House Committee on Science, Space, and Technology",http://science.house.gov/,http://democrats.science.house.gov/,HSSY,,,SY,Environment,18,,"2319 RHOB; Washington, DC 20515",(202) 225-6371,"2321 RHOB; Washington, DC 20515-6301",(202) 225-6371,http://science.house.gov/rss.xml,http://democrats.science.house.gov/rss.xml,"The Committee on Science, Space, and Technology has a jurisdiction over a range of matters related to energy research and development, federally owned or operated non-military energy laboratories, astronautical research and development, civil aviation, environmental research and development; marine research, and more. The Committee oversees the National Institute of Standards and Technology, National Aeronautics and Space Administration, National Science Foundation, and National Weather Service. It also reviews laws, programs, and Government activities relating to non-military research and development to report back to the House.",https://science.house.gov/about/jurisdiction
house,"House Committee on Science, Space, and Technology",http://science.house.gov/,http://democrats.science.house.gov/,HSSY,,,SY,Research and Technology,15,,"4220 OHOB; Washington, DC 20515",(202) 225-6371,"2321 RHOB; Washington, DC 20515-6301",(202) 225-6371,http://science.house.gov/rss.xml,http://democrats.science.house.gov/rss.xml,"The Committee on Science, Space, and Technology has a jurisdiction over a range of matters related to energy research and development, federally owned or operated non-military energy laboratories, astronautical research and development, civil aviation, environmental research and development; marine research, and more. The Committee oversees the National Institute of Standards and Technology, National Aeronautics and Space Administration, National Science Foundation, and National Weather Service. It also reviews laws, programs, and Government activities relating to non-military research and development to report back to the House.",https://science.house.gov/about/jurisdiction
house,House Select Committee on the Events Surrounding the 2012 Terrorist Attack in Benghazi,http://benghazi.house.gov/,http://democrats.benghazi.house.gov/,HLZI,,,ZI,,,,,,"1036 LHOB; Washington, DC 20515-6090",(202) 226-7100,http://benghazi.house.gov/rss.xml,http://democrats.benghazi.house.gov/rss.xml,"On May 8, 2014, the House of Representatives adopted H. Res. 567, Providing for the Establishment of the Select Committee on the Events Surrounding the 2012 Terrorist Attack in Benghazi, Libya.",https://benghazi.house.gov/about
house,House Committee on Veterans' Affairs,http://veterans.house.gov/,http://democrats.veterans.house.gov/,HSVR,,,VR,Disability Assistance and Memorial Affairs,09,,"337 CHOB; Washington, DC 20515",(202) 225-9164,"335 CHOB; Washington, DC 20515-6335",(202) 225-3527,http://veterans.house.gov/rss.xml,http://democrats.veterans.house.gov/rss.xml,"The House Committee on Veterans' Affairs is the authorizing committee for the Department of Veterans Affairs (VA). The committee is responsible for recommending legislation expanding, curtailing, or fine-tuning existing laws relating to veterans' benefits. The Committee also has oversight responsibility, which means monitoring and evaluating the operations of the VA. If the Committee finds that VA is not administering laws as Congress intended, then it is addressed through the hearing process and legislation.",https://veterans.house.gov/about/history.htm
house,House Committee on Veterans' Affairs,http://veterans.house.gov/,http://democrats.veterans.house.gov/,HSVR,,,VR,Economic Opportunity,10,,"335 CHOB; Washington, DC 20515",(202) 226-5491,"335 CHOB; Washington, DC 20515-6335",(202) 225-3527,http://veterans.house.gov/rss.xml,http://democrats.veterans.house.gov/rss.xml,"The House Committee on Veterans' Affairs is the authorizing committee for the Department of Veterans Affairs (VA). The committee is responsible for recommending legislation expanding, curtailing, or fine-tuning existing laws relating to veterans' benefits. The Committee also has oversight responsibility, which means monitoring and evaluating the operations of the VA. If the Committee finds that VA is not administering laws as Congress intended, then it is addressed through the hearing process and legislation.",https://veterans.house.gov/about/history.htm
house,House Committee on Veterans' Affairs,http://veterans.house.gov/,http://democrats.veterans.house.gov/,HSVR,,,VR,Health,03,,"338 CHOB; Washington, DC 20515",(202) 225-9154,"335 CHOB; Washington, DC 20515-6335",(202) 225-3527,http://veterans.house.gov/rss.xml,http://democrats.veterans.house.gov/rss.xml,"The House Committee on Veterans' Affairs is the authorizing committee for the Department of Veterans Affairs (VA). The committee is responsible for recommending legislation expanding, curtailing, or fine-tuning existing laws relating to veterans' benefits. The Committee also has oversight responsibility, which means monitoring and evaluating the operations of the VA. If the Committee finds that VA is not administering laws as Congress intended, then it is addressed through the hearing process and legislation.",https://veterans.house.gov/about/history.htm
house,House Committee on Veterans' Affairs,http://veterans.house.gov/,http://democrats.veterans.house.gov/,HSVR,,,VR,Oversight and Investigations,08,,"337A CHOB; Washington, DC 20515",(202) 225-3569,"335 CHOB; Washington, DC 20515-6335",(202) 225-3527,http://veterans.house.gov/rss.xml,http://democrats.veterans.house.gov/rss.xml,"The House Committee on Veterans' Affairs is the authorizing committee for the Department of Veterans Affairs (VA). The committee is responsible for recommending legislation expanding, curtailing, or fine-tuning existing laws relating to veterans' benefits. The Committee also has oversight responsibility, which means monitoring and evaluating the operations of the VA. If the Committee finds that VA is not administering laws as Congress intended, then it is addressed through the hearing process and legislation.",https://veterans.house.gov/about/history.htm
house,House Committee on Ways and Means,http://waysandmeans.house.gov/,http://democrats.waysandmeans.house.gov/,HSWM,,,WM,Health,02,,"1104 LHOB; Washington, DC 20515",(202) 225-3943,"1102 LHOB; Washington, DC 20515-6348",(202) 225-3625,http://veterans.house.gov/rss.xml,http://democrats.waysandmeans.house.gov/rss.xml,"The Committee on Ways and Means is the chief tax-writing committee in the House of Representatives. The Committee derives a large share of its jurisdiction from Article I, Section VII of the U.S. Constitution, which declares, “All Bills for raising Revenue shall originate in the House of Representatives.” The committee has jurisdiction over revenue and related issues such as tariffs, reciprocal trade agreements, and the bonded debt of the United States. It also oversees revenue-related aspects of the Social Security system, Medicare, and social services programs.",https://waysandmeans.house.gov/history/
house,House Committee on Ways and Means,http://waysandmeans.house.gov/,http://democrats.waysandmeans.house.gov/,HSWM,,,WM,Human Resources,03,,"1129 LHOB; Washington, DC 20515",(202) 225-1025,"1102 LHOB; Washington, DC 20515-6348",(202) 225-3625,http://veterans.house.gov/rss.xml,http://democrats.waysandmeans.house.gov/rss.xml,"The Committee on Ways and Means is the chief tax-writing committee in the House of Representatives. The Committee derives a large share of its jurisdiction from Article I, Section VII of the U.S. Constitution, which declares, “All Bills for raising Revenue shall originate in the House of Representatives.” The committee has jurisdiction over revenue and related issues such as tariffs, reciprocal trade agreements, and the bonded debt of the United States. It also oversees revenue-related aspects of the Social Security system, Medicare, and social services programs.",https://waysandmeans.house.gov/history/
house,House Committee on Ways and Means,http://waysandmeans.house.gov/,http://democrats.waysandmeans.house.gov/,HSWM,,,WM,Oversight,06,,"2018 RHOB; Washington, DC 20515",(202) 225-9263,"1102 LHOB; Washington, DC 20515-6348",(202) 225-3625,http://veterans.house.gov/rss.xml,http://democrats.waysandmeans.house.gov/rss.xml,"The Committee on Ways and Means is the chief tax-writing committee in the House of Representatives. The Committee derives a large share of its jurisdiction from Article I, Section VII of the U.S. Constitution, which declares, “All Bills for raising Revenue shall originate in the House of Representatives.” The committee has jurisdiction over revenue and related issues such as tariffs, reciprocal trade agreements, and the bonded debt of the United States. It also oversees revenue-related aspects of the Social Security system, Medicare, and social services programs.",https://waysandmeans.house.gov/history/
house,House Committee on Ways and Means,http://waysandmeans.house.gov/,http://democrats.waysandmeans.house.gov/,HSWM,,,WM,Tax Policy,05,,"1136 LHOB; Washington, DC 20515",(202) 225-5522,"1102 LHOB; Washington, DC 20515-6348",(202) 225-3625,http://veterans.house.gov/rss.xml,http://democrats.waysandmeans.house.gov/rss.xml,"The Committee on Ways and Means is the chief tax-writing committee in the House of Representatives. The Committee derives a large share of its jurisdiction from Article I, Section VII of the U.S. Constitution, which declares, “All Bills for raising Revenue shall originate in the House of Representatives.” The committee has jurisdiction over revenue and related issues such as tariffs, reciprocal trade agreements, and the bonded debt of the United States. It also oversees revenue-related aspects of the Social Security system, Medicare, and social services programs.",https://waysandmeans.house.gov/history/
house,House Committee on Ways and Means,http://waysandmeans.house.gov/,http://democrats.waysandmeans.house.gov/,HSWM,,,WM,Social Security,01,,"2018 RHOB; Washington, DC 20515",(202) 225-9263,"1102 LHOB; Washington, DC 20515-6348",(202) 225-3625,http://veterans.house.gov/rss.xml,http://democrats.waysandmeans.house.gov/rss.xml,"The Committee on Ways and Means is the chief tax-writing committee in the House of Representatives. The Committee derives a large share of its jurisdiction from Article I, Section VII of the U.S. Constitution, which declares, “All Bills for raising Revenue shall originate in the House of Representatives.” The committee has jurisdiction over revenue and related issues such as tariffs, reciprocal trade agreements, and the bonded debt of the United States. It also oversees revenue-related aspects of the Social Security system, Medicare, and social services programs.",https://waysandmeans.house.gov/history/
house,House Committee on Ways and Means,http://waysandmeans.house.gov/,http://democrats.waysandmeans.house.gov/,HSWM,,,WM,Trade,04,,"1103 LHOB; Washington, DC 20515",(202) 225-6649,"1102 LHOB; Washington, DC 20515-6348",(202) 225-3625,http://veterans.house.gov/rss.xml,http://democrats.waysandmeans.house.gov/rss.xml,"The Committee on Ways and Means is the chief tax-writing committee in the House of Representatives. The Committee derives a large share of its jurisdiction from Article I, Section VII of the U.S. Constitution, which declares, “All Bills for raising Revenue shall originate in the House of Representatives.” The committee has jurisdiction over revenue and related issues such as tariffs, reciprocal trade agreements, and the bonded debt of the United States. It also oversees revenue-related aspects of the Social Security system, Medicare, and social services programs.",https://waysandmeans.house.gov/history/
joint,Commission on Security and Cooperation in Europe,http://www.csce.gov/,http://democrats.waysandmeans.house.gov/,JCSE,JCSE,Commission on Security and Cooperation in Europe,WM,,,,,,"1102 LHOB; Washington, DC 20515-6348",(202) 225-3625,http://veterans.house.gov/rss.xml,http://democrats.waysandmeans.house.gov/rss.xml,"The Committee on Ways and Means is the chief tax-writing committee in the House of Representatives. The Committee derives a large share of its jurisdiction from Article I, Section VII of the U.S. Constitution, which declares, “All Bills for raising Revenue shall originate in the House of Representatives.” The committee has jurisdiction over revenue and related issues such as tariffs, reciprocal trade agreements, and the bonded debt of the United States. It also oversees revenue-related aspects of the Social Security system, Medicare, and social services programs.",https://waysandmeans.house.gov/history/
joint,Joint Economic Committee,http://jec.senate.gov/,http://democrats.waysandmeans.house.gov/,JSEC,JSEC,Joint Economic Committee,WM,,,,,,"1102 LHOB; Washington, DC 20515-6348",(202) 225-3625,http://www.jec.senate.gov/republicans/public/?a=RSS.Feed,http://www.jec.senate.gov/public/?a=RSS.Feed,"The Committee on Ways and Means is the chief tax-writing committee in the House of Representatives. The Committee derives a large share of its jurisdiction from Article I, Section VII of the U.S. Constitution, which declares, “All Bills for raising Revenue shall originate in the House of Representatives.” The committee has jurisdiction over revenue and related issues such as tariffs, reciprocal trade agreements, and the bonded debt of the United States. It also oversees revenue-related aspects of the Social Security system, Medicare, and social services programs.",https://waysandmeans.house.gov/history/
joint,Joint Committee on the Library,https://cha.house.gov/jointcommittees/joint-committee-library,http://democrats.waysandmeans.house.gov/,JSLC,JSLC,Joint Committee on the Library,WM,,,,,,"1102 LHOB; Washington, DC 20515-6348",(202) 225-3625,http://www.jec.senate.gov/republicans/public/?a=RSS.Feed,http://www.jec.senate.gov/public/?a=RSS.Feed,"The Committee on Ways and Means is the chief tax-writing committee in the House of Representatives. The Committee derives a large share of its jurisdiction from Article I, Section VII of the U.S. Constitution, which declares, “All Bills for raising Revenue shall originate in the House of Representatives.” The committee has jurisdiction over revenue and related issues such as tariffs, reciprocal trade agreements, and the bonded debt of the United States. It also oversees revenue-related aspects of the Social Security system, Medicare, and social services programs.",https://waysandmeans.house.gov/history/
joint,Joint Committee on Printing,https://cha.house.gov/jointcommittees/joint-committee-on-printing,http://democrats.waysandmeans.house.gov/,JSPR,JSPR,Joint Committee on Printing,WM,,,,,,"1102 LHOB; Washington, DC 20515-6348",(202) 225-3625,http://www.jec.senate.gov/republicans/public/?a=RSS.Feed,http://www.jec.senate.gov/public/?a=RSS.Feed,"The Committee on Ways and Means is the chief tax-writing committee in the House of Representatives. The Committee derives a large share of its jurisdiction from Article I, Section VII of the U.S. Constitution, which declares, “All Bills for raising Revenue shall originate in the House of Representatives.” The committee has jurisdiction over revenue and related issues such as tariffs, reciprocal trade agreements, and the bonded debt of the United States. It also oversees revenue-related aspects of the Social Security system, Medicare, and social services programs.",https://waysandmeans.house.gov/history/
joint,Joint Committee on Taxation,https://www.jct.gov,http://democrats.waysandmeans.house.gov/,JSTX,JSTX,United States Congress Joint Committee on Taxation,WM,,,,,,"1102 LHOB; Washington, DC 20515-6348",(202) 225-3625,http://www.jec.senate.gov/republicans/public/?a=RSS.Feed,http://www.jec.senate.gov/public/?a=RSS.Feed,"The Committee on Ways and Means is the chief tax-writing committee in the House of Representatives. The Committee derives a large share of its jurisdiction from Article I, Section VII of the U.S. Constitution, which declares, “All Bills for raising Revenue shall originate in the House of Representatives.” The committee has jurisdiction over revenue and related issues such as tariffs, reciprocal trade agreements, and the bonded debt of the United States. It also oversees revenue-related aspects of the Social Security system, Medicare, and social services programs.",https://waysandmeans.house.gov/history/
senate,United States Senate Caucus on International Narcotics Control,http://www.drugcaucus.senate.gov/,http://democrats.waysandmeans.house.gov/,SCNC,SCNC,United States Congress Joint Committee on Taxation,WM,,,,,,"1102 LHOB; Washington, DC 20515-6348",(202) 225-3625,http://www.jec.senate.gov/republicans/public/?a=RSS.Feed,http://www.jec.senate.gov/public/?a=RSS.Feed,"The Senate Caucus on International Narcotics Control was created to “monitor and encourage United States Government and private programs seeking to expand international cooperation against drug abuse and narcotics trafficking” and to “monitor and promote international compliance with narcotics control treaties.” As a formal organization of the U.S. Senate, the Caucus has the status of a standing committee. The Caucus exercises oversight on a wide range of issues, including international counternarcotics assistance and domestic drug prevention and treatment programs. The Caucus has held numerous hearings over the years and has issued a number of reports on U.S. narcotics control policy.",http://www.drugcaucus.senate.gov/content/about
senate,Senate Select Committee on Ethics,http://ethics.senate.gov/,http://democrats.waysandmeans.house.gov/,SLET,SLET,United States Senate Select Committee on Ethics,WM,,,,,,"1102 LHOB; Washington, DC 20515-6348",(202) 225-3625,http://www.ethics.senate.gov/public/?a=RSS.Feed,http://www.jec.senate.gov/public/?a=RSS.Feed,"The Senate Select Committee on Ethics is authorized to receive and investigate allegations of improper conduct which may reflect upon the Senate, violations of law, violations of the Senate Code of Official Conduct and violations of rules and regulations of the Senate; recommend disciplinary action; recommend additional Senate rules or regulations to insure proper standards of conduct; and report violations of law to the proper federal and state authorities.",https://www.ethics.senate.gov/public/index.cfm/jurisdiction
senate,Senate Committee on Indian Affairs,http://indian.senate.gov/,http://democrats.waysandmeans.house.gov/,SLIA,SLIA,United States Senate Committee on Indian Affairs,WM,,,,,,"1102 LHOB; Washington, DC 20515-6348",(202) 225-3625,http://www.ethics.senate.gov/public/?a=RSS.Feed,http://www.jec.senate.gov/public/?a=RSS.Feed,"The Senate Committee on Indian Affairs has jurisdiction to study the unique problems of American Indian, Native Hawaiian, and Alaska Native peoples and to propose legislation to alleviate these difficulties. These issues include, but are not limited to, Indian education, economic development, land management, trust responsibilities, health care, and claims against the United States. Additionally, all legislation proposed by Members of the Senate that specifically pertains to American Indians, Native Hawaiians, or Alaska Natives is under the jurisdiction of the Committee.",https://www.indian.senate.gov/about/history
senate,Senate Select Committee on Intelligence,http://intelligence.senate.gov/,http://democrats.waysandmeans.house.gov/,SLIN,SLIN,United States Senate Select Committee on Intelligence,WM,,,,,,"1102 LHOB; Washington, DC 20515-6348",(202) 225-3625,http://www.ethics.senate.gov/public/?a=RSS.Feed,http://www.jec.senate.gov/public/?a=RSS.Feed,The Senate Committee on Intelligence was created to study the intelligence activities and programs of the United States Government and report to the Senate concerning such intelligence activities and programs. The Committee is also responsible for proposing legislation and providing legislative oversight to ensure that intelligence activities of the United States are in conformity with the Constitution and the law.,https://www.intelligence.senate.gov/about
senate,Senate Special Committee on Aging,http://www.aging.senate.gov/,http://democrats.waysandmeans.house.gov/,SPAG,SPAG,United States Senate Special Committee on Aging,WM,,,,,,"1102 LHOB; Washington, DC 20515-6348",(202) 225-3625,http://www.ethics.senate.gov/public/?a=RSS.Feed,http://www.jec.senate.gov/public/?a=RSS.Feed,"The Senate Special Committee on Aging conducts a continuing study of issues related to older Americans such as health, income, lifestyle, and more. The committee reports its findings back to the Senate at least once a year. No bills are referred to this committee and the committee has no legislative jurisdiction.",https://www.aging.senate.gov/about/rules
senate,"Senate Committee on Agriculture, Nutrition, and Forestry",http://agriculture.senate.gov/,http://democrats.waysandmeans.house.gov/,SSAF,SSAF,"United States Senate Committee on Agriculture, Nutrition and Forestry",WM,"Commodities, Risk Management, and Trade",13,"United States Senate Agriculture Subcommittee on Commodities, Markets, Trade and Risk Management",,,"1102 LHOB; Washington, DC 20515-6348",(202) 225-3625,http://www.ag.senate.gov/rss/feeds/?type=press&groups=democrat,http://www.ag.senate.gov/rss/feeds/?type=press&groups=republican,"The Senate Committee on Agriculture has legislative jurisdiction over agriculture, food, and nutrition.",https://www.agriculture.senate.gov/about/jurisdiction
senate,"Senate Committee on Agriculture, Nutrition, and Forestry",http://agriculture.senate.gov/,http://democrats.waysandmeans.house.gov/,SSAF,SSAF,"United States Senate Committee on Agriculture, Nutrition and Forestry",WM,"Conservation, Forestry, and Natural Resources",14,"United States Senate Agriculture Subcommittee on Conservation, Forestry and Natural Resources",,,"1102 LHOB; Washington, DC 20515-6348",(202) 225-3625,http://www.ag.senate.gov/rss/feeds/?type=press&groups=democrat,http://www.ag.senate.gov/rss/feeds/?type=press&groups=republican,"The Senate Committee on Agriculture has legislative jurisdiction over agriculture, food, and nutrition.",https://www.agriculture.senate.gov/about/jurisdiction
senate,"Senate Committee on Agriculture, Nutrition, and Forestry",http://agriculture.senate.gov/,http://democrats.waysandmeans.house.gov/,SSAF,SSAF,"United States Senate Committee on Agriculture, Nutrition and Forestry",WM,Rural Development and Energy,15,"United States Senate Agriculture Subcommittee on Jobs, Rural Economic Growth and Energy Innovation",,,"1102 LHOB; Washington, DC 20515-6348",(202) 225-3625,http://www.ag.senate.gov/rss/feeds/?type=press&groups=democrat,http://www.ag.senate.gov/rss/feeds/?type=press&groups=republican,"The Senate Committee on Agriculture has legislative jurisdiction over agriculture, food, and nutrition.",https://www.agriculture.senate.gov/about/jurisdiction
senate,"Senate Committee on Agriculture, Nutrition, and Forestry",http://agriculture.senate.gov/,http://democrats.waysandmeans.house.gov/,SSAF,SSAF,"United States Senate Committee on Agriculture, Nutrition and Forestry",WM,"Nutrition, Agricultural Research, and Specialty Crops",16,"United States Senate Agriculture Subcommittee on Nutrition, Specialty Crops, Food and Agricultural Research",,,"1102 LHOB; Washington, DC 20515-6348",(202) 225-3625,http://www.ag.senate.gov/rss/feeds/?type=press&groups=democrat,http://www.ag.senate.gov/rss/feeds/?type=press&groups=republican,"The Senate Committee on Agriculture has legislative jurisdiction over agriculture, food, and nutrition.",https://www.agriculture.senate.gov/about/jurisdiction
senate,"Senate Committee on Agriculture, Nutrition, and Forestry",http://agriculture.senate.gov/,http://democrats.waysandmeans.house.gov/,SSAF,SSAF,"United States Senate Committee on Agriculture, Nutrition and Forestry",WM,"Livestock, Marketing, and Agriculture Security",17,"United States Senate Agriculture Subcommittee on Livestock, Dairy, Poultry, Marketing and Agriculture Security",,,"1102 LHOB; Washington, DC 20515-6348",(202) 225-3625,http://www.ag.senate.gov/rss/feeds/?type=press&groups=democrat,http://www.ag.senate.gov/rss/feeds/?type=press&groups=republican,"The Senate Committee on Agriculture has legislative jurisdiction over agriculture, food, and nutrition.",https://www.agriculture.senate.gov/about/jurisdiction
senate,Senate Committee on Appropriations,http://appropriations.senate.gov/,http://democrats.waysandmeans.house.gov/,SSAP,SSAP,United States Senate Committee on Appropriations,WM,"Commerce, Justice, Science, and Related Agencies",16,"United States Senate Appropriations Subcommittee on Commerce, Justice, Science, and Related Agencies",,,"1102 LHOB; Washington, DC 20515-6348",(202) 225-3625,http://www.ag.senate.gov/rss/feeds/?type=press&groups=democrat,http://www.ag.senate.gov/rss/feeds/?type=press&groups=republican,"The Senate Committee on Appropriations is responsible for legislation allocating federal funds prior to expenditure from the treasury. Appropriations are generally limited to the levels set by the Budget Resolution drafted by the Senate Committee on the Budget. The Committee is also responsible for supplemental spending bills, which are sometimes needed in the middle of a fiscal year to compensate for emergency expenses.",https://www.appropriations.senate.gov/about/jurisdiction
senate,Senate Committee on Appropriations,http://appropriations.senate.gov/,http://democrats.waysandmeans.house.gov/,SSAP,SSAP,United States Senate Committee on Appropriations,WM,Energy and Water Development,22,United States Senate Appropriations Subcommittee on Financial Services and General Government,,,"1102 LHOB; Washington, DC 20515-6348",(202) 225-3625,http://www.ag.senate.gov/rss/feeds/?type=press&groups=democrat,http://www.ag.senate.gov/rss/feeds/?type=press&groups=republican,"The Senate Committee on Appropriations is responsible for legislation allocating federal funds prior to expenditure from the treasury. Appropriations are generally limited to the levels set by the Budget Resolution drafted by the Senate Committee on the Budget. The Committee is also responsible for supplemental spending bills, which are sometimes needed in the middle of a fiscal year to compensate for emergency expenses.",https://www.appropriations.senate.gov/about/jurisdiction
senate,Senate Committee on Appropriations,http://appropriations.senate.gov/,http://democrats.waysandmeans.house.gov/,SSAP,SSAP,United States Senate Committee on Appropriations,WM,Financial Services and General Government,23,United States Senate Appropriations Subcommittee on Financial Services and General Government,,,"1102 LHOB; Washington, DC 20515-6348",(202) 225-3625,http://www.ag.senate.gov/rss/feeds/?type=press&groups=democrat,http://www.ag.senate.gov/rss/feeds/?type=press&groups=republican,"The Senate Committee on Appropriations is responsible for legislation allocating federal funds prior to expenditure from the treasury. Appropriations are generally limited to the levels set by the Budget Resolution drafted by the Senate Committee on the Budget. The Committee is also responsible for supplemental spending bills, which are sometimes needed in the middle of a fiscal year to compensate for emergency expenses.",https://www.appropriations.senate.gov/about/jurisdiction
senate,Senate Committee on Appropriations,http://appropriations.senate.gov/,http://democrats.waysandmeans.house.gov/,SSAP,SSAP,United States Senate Committee on Appropriations,WM,Department of Homeland Security,14,United States Senate Appropriations Subcommittee on Homeland Security,,,"1102 LHOB; Washington, DC 20515-6348",(202) 225-3625,http://www.ag.senate.gov/rss/feeds/?type=press&groups=democrat,http://www.ag.senate.gov/rss/feeds/?type=press&groups=republican,"The Senate Committee on Appropriations is responsible for legislation allocating federal funds prior to expenditure from the treasury. Appropriations are generally limited to the levels set by the Budget Resolution drafted by the Senate Committee on the Budget. The Committee is also responsible for supplemental spending bills, which are sometimes needed in the middle of a fiscal year to compensate for emergency expenses.",https://www.appropriations.senate.gov/about/jurisdiction
senate,Senate Committee on Appropriations,http://appropriations.senate.gov/,http://democrats.waysandmeans.house.gov/,SSAP,SSAP,United States Senate Committee on Appropriations,WM,"Department of the Interior, Environment, and Related Agencies",17,"United States Senate Appropriations Subcommittee on Interior, Environment, and Related Agencies",,,"1102 LHOB; Washington, DC 20515-6348",(202) 225-3625,http://www.ag.senate.gov/rss/feeds/?type=press&groups=democrat,http://www.ag.senate.gov/rss/feeds/?type=press&groups=republican,"The Senate Committee on Appropriations is responsible for legislation allocating federal funds prior to expenditure from the treasury. Appropriations are generally limited to the levels set by the Budget Resolution drafted by the Senate Committee on the Budget. The Committee is also responsible for supplemental spending bills, which are sometimes needed in the middle of a fiscal year to compensate for emergency expenses.",https://www.appropriations.senate.gov/about/jurisdiction
senate,Senate Committee on Appropriations,http://appropriations.senate.gov/,http://democrats.waysandmeans.house.gov/,SSAP,SSAP,United States Senate Committee on Appropriations,WM,"Departments of Labor, Health and Human Services, and Education, and Related Agencies",18,"United States Senate Appropriations Subcommittee on Labor, Health and Human Services, Education, and Related Agencies",,,"1102 LHOB; Washington, DC 20515-6348",(202) 225-3625,http://www.ag.senate.gov/rss/feeds/?type=press&groups=democrat,http://www.ag.senate.gov/rss/feeds/?type=press&groups=republican,"The Senate Committee on Appropriations is responsible for legislation allocating federal funds prior to expenditure from the treasury. Appropriations are generally limited to the levels set by the Budget Resolution drafted by the Senate Committee on the Budget. The Committee is also responsible for supplemental spending bills, which are sometimes needed in the middle of a fiscal year to compensate for emergency expenses.",https://www.appropriations.senate.gov/about/jurisdiction
senate,Senate Committee on Appropriations,http://appropriations.senate.gov/,http://democrats.waysandmeans.house.gov/,SSAP,SSAP,United States Senate Committee on Appropriations,WM,"Military Construction and Veterans Affairs, and Related Agencies",19,"United States Senate Appropriations Subcommittee on Military Construction, Veterans Affairs, and Related Agencies",,,"1102 LHOB; Washington, DC 20515-6348",(202) 225-3625,http://www.ag.senate.gov/rss/feeds/?type=press&groups=democrat,http://www.ag.senate.gov/rss/feeds/?type=press&groups=republican,"The Senate Committee on Appropriations is responsible for legislation allocating federal funds prior to expenditure from the treasury. Appropriations are generally limited to the levels set by the Budget Resolution drafted by the Senate Committee on the Budget. The Committee is also responsible for supplemental spending bills, which are sometimes needed in the middle of a fiscal year to compensate for emergency expenses.",https://www.appropriations.senate.gov/about/jurisdiction
senate,Senate Committee on Appropriations,http://appropriations.senate.gov/,http://democrats.waysandmeans.house.gov/,SSAP,SSAP,United States Senate Committee on Appropriations,WM,"State, Foreign Operations, and Related Programs",20,"United States Senate Appropriations Subcommittee on the Department of State, Foreign Operations, and Related Programs",,,"1102 LHOB; Washington, DC 20515-6348",(202) 225-3625,http://www.ag.senate.gov/rss/feeds/?type=press&groups=democrat,http://www.ag.senate.gov/rss/feeds/?type=press&groups=republican,"The Senate Committee on Appropriations is responsible for legislation allocating federal funds prior to expenditure from the treasury. Appropriations are generally limited to the levels set by the Budget Resolution drafted by the Senate Committee on the Budget. The Committee is also responsible for supplemental spending bills, which are sometimes needed in the middle of a fiscal year to compensate for emergency expenses.",https://www.appropriations.senate.gov/about/jurisdiction
senate,Senate Committee on Appropriations,http://appropriations.senate.gov/,http://democrats.waysandmeans.house.gov/,SSAP,SSAP,United States Senate Committee on Appropriations,WM,"Transportation, Housing and Urban Development, and Related Agencies",24,"United States Senate Appropriations Subcommittee on Transportation, Housing and Urban Development, and Related Agencies",,,"1102 LHOB; Washington, DC 20515-6348",(202) 225-3625,http://www.ag.senate.gov/rss/feeds/?type=press&groups=democrat,http://www.ag.senate.gov/rss/feeds/?type=press&groups=republican,"The Senate Committee on Appropriations is responsible for legislation allocating federal funds prior to expenditure from the treasury. Appropriations are generally limited to the levels set by the Budget Resolution drafted by the Senate Committee on the Budget. The Committee is also responsible for supplemental spending bills, which are sometimes needed in the middle of a fiscal year to compensate for emergency expenses.",https://www.appropriations.senate.gov/about/jurisdiction
senate,Senate Committee on Appropriations,http://appropriations.senate.gov/,http://democrats.waysandmeans.house.gov/,SSAP,SSAP,United States Senate Committee on Appropriations,WM,"Agriculture, Rural Development, Food and Drug Administration, and Related Agencies",01,"United States Senate Appropriations Subcommittee on Agriculture, Rural Development, Food and Drug Administration, and Related Agencies",,,"1102 LHOB; Washington, DC 20515-6348",(202) 225-3625,http://www.ag.senate.gov/rss/feeds/?type=press&groups=democrat,http://www.ag.senate.gov/rss/feeds/?type=press&groups=republican,"The Senate Committee on Appropriations is responsible for legislation allocating federal funds prior to expenditure from the treasury. Appropriations are generally limited to the levels set by the Budget Resolution drafted by the Senate Committee on the Budget. The Committee is also responsible for supplemental spending bills, which are sometimes needed in the middle of a fiscal year to compensate for emergency expenses.",https://www.appropriations.senate.gov/about/jurisdiction
senate,Senate Committee on Appropriations,http://appropriations.senate.gov/,http://democrats.waysandmeans.house.gov/,SSAP,SSAP,United States Senate Committee on Appropriations,WM,Department of Defense,02,United States Senate Appropriations Subcommittee on Defense,,,"1102 LHOB; Washington, DC 20515-6348",(202) 225-3625,http://www.ag.senate.gov/rss/feeds/?type=press&groups=democrat,http://www.ag.senate.gov/rss/feeds/?type=press&groups=republican,"The Senate Committee on Appropriations is responsible for legislation allocating federal funds prior to expenditure from the treasury. Appropriations are generally limited to the levels set by the Budget Resolution drafted by the Senate Committee on the Budget. The Committee is also responsible for supplemental spending bills, which are sometimes needed in the middle of a fiscal year to compensate for emergency expenses.",https://www.appropriations.senate.gov/about/jurisdiction
senate,Senate Committee on Appropriations,http://appropriations.senate.gov/,http://democrats.waysandmeans.house.gov/,SSAP,SSAP,United States Senate Committee on Appropriations,WM,Legislative Branch,08,United States Senate Appropriations Subcommittee on Legislative Branch,,,"1102 LHOB; Washington, DC 20515-6348",(202) 225-3625,http://www.ag.senate.gov/rss/feeds/?type=press&groups=democrat,http://www.ag.senate.gov/rss/feeds/?type=press&groups=republican,"The Senate Committee on Appropriations is responsible for legislation allocating federal funds prior to expenditure from the treasury. Appropriations are generally limited to the levels set by the Budget Resolution drafted by the Senate Committee on the Budget. The Committee is also responsible for supplemental spending bills, which are sometimes needed in the middle of a fiscal year to compensate for emergency expenses.",https://www.appropriations.senate.gov/about/jurisdiction
senate,Senate Committee on Armed Services,http://armed-services.senate.gov/,http://democrats.waysandmeans.house.gov/,SSAS,SSAS,United States Senate Committee on Armed Services,WM,Airland,14,United States Senate Armed Services Subcommittee on Airland,,,"1102 LHOB; Washington, DC 20515-6348",(202) 225-3625,"http://www.armed-services.senate.gov/press/index.cfm?xml=Press%20Releases,RSS2.0",http://www.ag.senate.gov/rss/feeds/?type=press&groups=republican,The Senate Committee on Armed Services has legislative jurisdiction over military and defense.,https://www.armed-services.senate.gov/about/history
senate,Senate Committee on Armed Services,http://armed-services.senate.gov/,http://democrats.waysandmeans.house.gov/,SSAS,SSAS,United States Senate Committee on Armed Services,WM,Emerging Threats and Capabilities,20,United States Senate Armed Services Subcommittee on Emerging Threats and Capabilities,,,"1102 LHOB; Washington, DC 20515-6348",(202) 225-3625,"http://www.armed-services.senate.gov/press/index.cfm?xml=Press%20Releases,RSS2.0",http://www.ag.senate.gov/rss/feeds/?type=press&groups=republican,The Senate Committee on Armed Services has legislative jurisdiction over military and defense.,https://www.armed-services.senate.gov/about/history
senate,Senate Committee on Armed Services,http://armed-services.senate.gov/,http://democrats.waysandmeans.house.gov/,SSAS,SSAS,United States Senate Committee on Armed Services,WM,Personnel,17,United States Senate Armed Services Subcommittee on Personnel,,,"1102 LHOB; Washington, DC 20515-6348",(202) 225-3625,"http://www.armed-services.senate.gov/press/index.cfm?xml=Press%20Releases,RSS2.0",http://www.ag.senate.gov/rss/feeds/?type=press&groups=republican,The Senate Committee on Armed Services has legislative jurisdiction over military and defense.,https://www.armed-services.senate.gov/about/history
senate,Senate Committee on Armed Services,http://armed-services.senate.gov/,http://democrats.waysandmeans.house.gov/,SSAS,SSAS,United States Senate Committee on Armed Services,WM,Readiness and Management Support,15,United States Senate Armed Services Subcommittee on Readiness and Management Support,,,"1102 LHOB; Washington, DC 20515-6348",(202) 225-3625,"http://www.armed-services.senate.gov/press/index.cfm?xml=Press%20Releases,RSS2.0",http://www.ag.senate.gov/rss/feeds/?type=press&groups=republican,The Senate Committee on Armed Services has legislative jurisdiction over military and defense.,https://www.armed-services.senate.gov/about/history
senate,Senate Committee on Armed Services,http://armed-services.senate.gov/,http://democrats.waysandmeans.house.gov/,SSAS,SSAS,United States Senate Committee on Armed Services,WM,SeaPower,13,United States Senate Armed Services Subcommittee on Seapower,,,"1102 LHOB; Washington, DC 20515-6348",(202) 225-3625,"http://www.armed-services.senate.gov/press/index.cfm?xml=Press%20Releases,RSS2.0",http://www.ag.senate.gov/rss/feeds/?type=press&groups=republican,The Senate Committee on Armed Services has legislative jurisdiction over military and defense.,https://www.armed-services.senate.gov/about/history
senate,Senate Committee on Armed Services,http://armed-services.senate.gov/,http://democrats.waysandmeans.house.gov/,SSAS,SSAS,United States Senate Committee on Armed Services,WM,Strategic Forces,16,United States Senate Armed Services Subcommittee on Strategic Forces,,,"1102 LHOB; Washington, DC 20515-6348",(202) 225-3625,"http://www.armed-services.senate.gov/press/index.cfm?xml=Press%20Releases,RSS2.0",http://www.ag.senate.gov/rss/feeds/?type=press&groups=republican,The Senate Committee on Armed Services has legislative jurisdiction over military and defense.,https://www.armed-services.senate.gov/about/history
senate,Senate Committee on Armed Services,http://armed-services.senate.gov/,http://democrats.waysandmeans.house.gov/,SSAS,SSAS,United States Senate Committee on Armed Services,WM,Cybersecurity,21,,,,"1102 LHOB; Washington, DC 20515-6348",(202) 225-3625,"http://www.armed-services.senate.gov/press/index.cfm?xml=Press%20Releases,RSS2.0",http://www.ag.senate.gov/rss/feeds/?type=press&groups=republican,The Senate Committee on Armed Services has legislative jurisdiction over military and defense.,https://www.armed-services.senate.gov/about/history
senate,"Senate Committee on Banking, Housing, and Urban Affairs",http://banking.senate.gov/,http://democrats.waysandmeans.house.gov/,SSBK,SSBK,"United States Senate Committee on Banking, Housing, and Urban Affairs",WM,Economic Policy,12,United States Senate Banking Subcommittee on Economic Policy,,,"1102 LHOB; Washington, DC 20515-6348",(202) 225-3625,"http://www.armed-services.senate.gov/press/index.cfm?xml=Press%20Releases,RSS2.0",http://www.ag.senate.gov/rss/feeds/?type=press&groups=republican,"The Senate Committee on Banking, Housing, and Urban Affairs not only has legislative jurisdiction on the topics listed in its name, but also on a range of other topics such as economic stability, federal monetary policy, and government contracts.",https://www.banking.senate.gov/public/index.cfm/about
senate,"Senate Committee on Banking, Housing, and Urban Affairs",http://banking.senate.gov/,http://democrats.waysandmeans.house.gov/,SSBK,SSBK,"United States Senate Committee on Banking, Housing, and Urban Affairs",WM,National Security and International Trade and Finance,05,United States Senate Banking Subcommittee on Security and International Trade and Finance,,,"1102 LHOB; Washington, DC 20515-6348",(202) 225-3625,"http://www.armed-services.senate.gov/press/index.cfm?xml=Press%20Releases,RSS2.0",http://www.ag.senate.gov/rss/feeds/?type=press&groups=republican,"The Senate Committee on Banking, Housing, and Urban Affairs not only has legislative jurisdiction on the topics listed in its name, but also on a range of other topics such as economic stability, federal monetary policy, and government contracts.",https://www.banking.senate.gov/public/index.cfm/about
senate,"Senate Committee on Banking, Housing, and Urban Affairs",http://banking.senate.gov/,http://democrats.waysandmeans.house.gov/,SSBK,SSBK,"United States Senate Committee on Banking, Housing, and Urban Affairs",WM,"Securities, Insurance, and Investment",04,"United States Senate Banking Subcommittee on Securities, Insurance, and Investment",,,"1102 LHOB; Washington, DC 20515-6348",(202) 225-3625,"http://www.armed-services.senate.gov/press/index.cfm?xml=Press%20Releases,RSS2.0",http://www.ag.senate.gov/rss/feeds/?type=press&groups=republican,"The Senate Committee on Banking, Housing, and Urban Affairs not only has legislative jurisdiction on the topics listed in its name, but also on a range of other topics such as economic stability, federal monetary policy, and government contracts.",https://www.banking.senate.gov/public/index.cfm/about
senate,"Senate Committee on Banking, Housing, and Urban Affairs",http://banking.senate.gov/,http://democrats.waysandmeans.house.gov/,SSBK,SSBK,"United States Senate Committee on Banking, Housing, and Urban Affairs",WM,"Housing, Transportation, and Community Development",09,"United States Senate Banking Subcommittee on Housing, Transportation, and Community Development",,,"1102 LHOB; Washington, DC 20515-6348",(202) 225-3625,"http://www.armed-services.senate.gov/press/index.cfm?xml=Press%20Releases,RSS2.0",http://www.ag.senate.gov/rss/feeds/?type=press&groups=republican,"The Senate Committee on Banking, Housing, and Urban Affairs not only has legislative jurisdiction on the topics listed in its name, but also on a range of other topics such as economic stability, federal monetary policy, and government contracts.",https://www.banking.senate.gov/public/index.cfm/about
senate,"Senate Committee on Banking, Housing, and Urban Affairs",http://banking.senate.gov/,http://democrats.waysandmeans.house.gov/,SSBK,SSBK,"United States Senate Committee on Banking, Housing, and Urban Affairs",WM,Financial Institutions and Consumer Protection,08,United States Senate Banking Subcommittee on Financial Institutions and Consumer Protection,,,"1102 LHOB; Washington, DC 20515-6348",(202) 225-3625,"http://www.armed-services.senate.gov/press/index.cfm?xml=Press%20Releases,RSS2.0",http://www.ag.senate.gov/rss/feeds/?type=press&groups=republican,"The Senate Committee on Banking, Housing, and Urban Affairs not only has legislative jurisdiction on the topics listed in its name, but also on a range of other topics such as economic stability, federal monetary policy, and government contracts.",https://www.banking.senate.gov/public/index.cfm/about
senate,Senate Committee on the Budget,http://budget.senate.gov/,http://democrats.waysandmeans.house.gov/,SSBU,SSBU,United States Senate Committee on the Budget,WM,,,,,,"1102 LHOB; Washington, DC 20515-6348",(202) 225-3625,"http://www.budget.senate.gov/democratic/index.cfm?a=RSS.Feed&Type=press-releases,statements",http://www.budget.senate.gov/republican/public/index.cfm/rss/feed,"The Senate Committee on the Budget is responsible for drafting a concurrent resolution on the budget for congressional action on spending, revenue, and debt-limit legislation. The Budget Resolution must be jointly agreed to by both the House and the Senate, but does not need to be signed by the President. The Committee is also responsible for enforcing the Budget Resolution by informing senators of violations to the budget, and by working with other committees, such as the Committee on Appropriations, to prevent potential violations.",https://www.budget.senate.gov/about/committee-history
senate,"Senate Committee on Commerce, Science, and Transportation",http://commerce.senate.gov/,http://democrats.waysandmeans.house.gov/,SSCM,SSCM,"United States Senate Committee on Commerce, Science and Transportation",WM,"Communications, Technology, Innovation, and the Internet",26,"United States Senate Commerce Subcommittee on Communications, Technology, and the Internet",,,"1102 LHOB; Washington, DC 20515-6348",(202) 225-3625,http://www.commerce.senate.gov/public/?a=RSS.Feed,http://www.budget.senate.gov/republican/public/index.cfm/rss/feed,"The Senate Committee on Commerce, Science, and Transportation has legislative jurisdiction on matters related to science and technology, oceans policy, transportation, communications, and consumer affairs.",https://www.commerce.senate.gov/public/index.cfm/jurisdiction
senate,"Senate Committee on Commerce, Science, and Transportation",http://commerce.senate.gov/,http://democrats.waysandmeans.house.gov/,SSCM,SSCM,"United States Senate Committee on Commerce, Science and Transportation",WM,"Tourism, Competitiveness, and Innovation",27,"United States Senate Commerce Subcommittee on Competitiveness, Innovation, and Export Promotion",,,"1102 LHOB; Washington, DC 20515-6348",(202) 225-3625,http://www.commerce.senate.gov/public/?a=RSS.Feed,http://www.budget.senate.gov/republican/public/index.cfm/rss/feed,"The Senate Committee on Commerce, Science, and Transportation has legislative jurisdiction on matters related to science and technology, oceans policy, transportation, communications, and consumer affairs.",https://www.commerce.senate.gov/public/index.cfm/jurisdiction
senate,"Senate Committee on Commerce, Science, and Transportation",http://commerce.senate.gov/,http://democrats.waysandmeans.house.gov/,SSCM,SSCM,"United States Senate Committee on Commerce, Science and Transportation",WM,"Consumer Protection, Product Safety, Insurance, and Data Security",20,"United States Senate Commerce Subcommittee on Consumer Protection, Product Safety, and Insurance",,,"1102 LHOB; Washington, DC 20515-6348",(202) 225-3625,http://www.commerce.senate.gov/public/?a=RSS.Feed,http://www.budget.senate.gov/republican/public/index.cfm/rss/feed,"The Senate Committee on Commerce, Science, and Transportation has legislative jurisdiction on matters related to science and technology, oceans policy, transportation, communications, and consumer affairs.",https://www.commerce.senate.gov/public/index.cfm/jurisdiction
senate,"Senate Committee on Commerce, Science, and Transportation",http://commerce.senate.gov/,http://democrats.waysandmeans.house.gov/,SSCM,SSCM,"United States Senate Committee on Commerce, Science and Transportation",WM,"Oceans, Atmosphere, Fisheries, and Coast Guard",22,"United States Senate Commerce Subcommittee on Oceans, Atmosphere, Fisheries, and Coast Guard",,,"1102 LHOB; Washington, DC 20515-6348",(202) 225-3625,http://www.commerce.senate.gov/public/?a=RSS.Feed,http://www.budget.senate.gov/republican/public/index.cfm/rss/feed,"The Senate Committee on Commerce, Science, and Transportation has legislative jurisdiction on matters related to science and technology, oceans policy, transportation, communications, and consumer affairs.",https://www.commerce.senate.gov/public/index.cfm/jurisdiction
senate,"Senate Committee on Commerce, Science, and Transportation",http://commerce.senate.gov/,http://democrats.waysandmeans.house.gov/,SSCM,SSCM,"United States Senate Committee on Commerce, Science and Transportation",WM,"Space, Science, and Competitiveness",24,United States Senate Commerce Subcommittee on Science and Space,,,"1102 LHOB; Washington, DC 20515-6348",(202) 225-3625,http://www.commerce.senate.gov/public/?a=RSS.Feed,http://www.budget.senate.gov/republican/public/index.cfm/rss/feed,"The Senate Committee on Commerce, Science, and Transportation has legislative jurisdiction on matters related to science and technology, oceans policy, transportation, communications, and consumer affairs.",https://www.commerce.senate.gov/public/index.cfm/jurisdiction
senate,"Senate Committee on Commerce, Science, and Transportation",http://commerce.senate.gov/,http://democrats.waysandmeans.house.gov/,SSCM,SSCM,"United States Senate Committee on Commerce, Science and Transportation",WM,"Surface Transportation and Merchant Marine Infrastructure, Safety and Security",25,"United States Senate Commerce Subcommittee on Surface Transportation and Merchant Marine Infrastructure, Safety, and Security",,,"1102 LHOB; Washington, DC 20515-6348",(202) 225-3625,http://www.commerce.senate.gov/public/?a=RSS.Feed,http://www.budget.senate.gov/republican/public/index.cfm/rss/feed,"The Senate Committee on Commerce, Science, and Transportation has legislative jurisdiction on matters related to science and technology, oceans policy, transportation, communications, and consumer affairs.",https://www.commerce.senate.gov/public/index.cfm/jurisdiction
senate,"Senate Committee on Commerce, Science, and Transportation",http://commerce.senate.gov/,http://democrats.waysandmeans.house.gov/,SSCM,SSCM,"United States Senate Committee on Commerce, Science and Transportation",WM,"Aviation Operations, Safety, and Security",01,"United States Senate Commerce Subcommittee on Aviation Operations, Safety, and Security",,,"1102 LHOB; Washington, DC 20515-6348",(202) 225-3625,http://www.commerce.senate.gov/public/?a=RSS.Feed,http://www.budget.senate.gov/republican/public/index.cfm/rss/feed,"The Senate Committee on Commerce, Science, and Transportation has legislative jurisdiction on matters related to science and technology, oceans policy, transportation, communications, and consumer affairs.",https://www.commerce.senate.gov/public/index.cfm/jurisdiction
senate,Senate Committee on Energy and Natural Resources,http://energy.senate.gov/,http://democrats.waysandmeans.house.gov/,SSEG,SSEG,United States Senate Committee on Energy and Natural Resources,WM,Water and Power,07,United States Senate Energy Subcommittee on Water and Power,,,"1102 LHOB; Washington, DC 20515-6348",(202) 225-3625,http://www.energy.senate.gov/public/index.cfm/rss/feed?type=democratic-news,http://www.energy.senate.gov/public/index.cfm/rss/feed?type=republican-news,"The Senate Committee on Energy and Natural Resources has legislative jurisdiction on matters related to energy resources and development, nuclear energy, Indian affairs, public lands and their renewable resources, surface mining, territories and insular possessions, and water resources.",https://www.energy.senate.gov/public/index.cfm/jurisdiction
senate,Senate Committee on Energy and Natural Resources,http://energy.senate.gov/,http://democrats.waysandmeans.house.gov/,SSEG,SSEG,United States Senate Committee on Energy and Natural Resources,WM,National Parks,04,United States Senate Energy Subcommittee on National Parks,,,"1102 LHOB; Washington, DC 20515-6348",(202) 225-3625,http://www.energy.senate.gov/public/index.cfm/rss/feed?type=democratic-news,http://www.energy.senate.gov/public/index.cfm/rss/feed?type=republican-news,"The Senate Committee on Energy and Natural Resources has legislative jurisdiction on matters related to energy resources and development, nuclear energy, Indian affairs, public lands and their renewable resources, surface mining, territories and insular possessions, and water resources.",https://www.energy.senate.gov/public/index.cfm/jurisdiction
senate,Senate Committee on Energy and Natural Resources,http://energy.senate.gov/,http://democrats.waysandmeans.house.gov/,SSEG,SSEG,United States Senate Committee on Energy and Natural Resources,WM,Energy,01,United States Senate Energy Subcommittee on Energy,,,"1102 LHOB; Washington, DC 20515-6348",(202) 225-3625,http://www.energy.senate.gov/public/index.cfm/rss/feed?type=democratic-news,http://www.energy.senate.gov/public/index.cfm/rss/feed?type=republican-news,"The Senate Committee on Energy and Natural Resources has legislative jurisdiction on matters related to energy resources and development, nuclear energy, Indian affairs, public lands and their renewable resources, surface mining, territories and insular possessions, and water resources.",https://www.energy.senate.gov/public/index.cfm/jurisdiction
senate,Senate Committee on Energy and Natural Resources,http://energy.senate.gov/,http://democrats.waysandmeans.house.gov/,SSEG,SSEG,United States Senate Committee on Energy and Natural Resources,WM,"Public Lands, Forests, and Mining",03,"United States Senate Energy Subcommittee on Public Lands, Forests and Mining",,,"1102 LHOB; Washington, DC 20515-6348",(202) 225-3625,http://www.energy.senate.gov/public/index.cfm/rss/feed?type=democratic-news,http://www.energy.senate.gov/public/index.cfm/rss/feed?type=republican-news,"The Senate Committee on Energy and Natural Resources has legislative jurisdiction on matters related to energy resources and development, nuclear energy, Indian affairs, public lands and their renewable resources, surface mining, territories and insular possessions, and water resources.",https://www.energy.senate.gov/public/index.cfm/jurisdiction
senate,Senate Committee on Environment and Public Works,http://epw.senate.gov/,http://democrats.waysandmeans.house.gov/,SSEV,SSEV,United States Senate Committee on Environment and Public Works,WM,Clean Air and Nuclear Safety,10,United States Senate Environment and Public Works Subcommittee on Clean Air and Nuclear Safety,,,"1102 LHOB; Washington, DC 20515-6348",(202) 225-3625,http://www.epw.senate.gov/public/index.cfm?FuseAction=RSS.Majority,http://www.epw.senate.gov/public/index.cfm?FuseAction=RSS.Minority,"The Senate Committee on Environment and Public Works has legislative jurisdiction on matters related to environmental protection, resource utilization and conservation, and public infrastructure.",https://www.epw.senate.gov/public/index.cfm/committee-jurisdiction
senate,Senate Committee on Environment and Public Works,http://epw.senate.gov/,http://democrats.waysandmeans.house.gov/,SSEV,SSEV,United States Senate Committee on Environment and Public Works,WM,"Superfund, Waste Management, and Regulatory Oversight",09,"United States Senate Environment and Public Works Subcommittee on Superfund, Toxics and Environmental Health",,,"1102 LHOB; Washington, DC 20515-6348",(202) 225-3625,http://www.epw.senate.gov/public/index.cfm?FuseAction=RSS.Majority,http://www.epw.senate.gov/public/index.cfm?FuseAction=RSS.Minority,"The Senate Committee on Environment and Public Works has legislative jurisdiction on matters related to environmental protection, resource utilization and conservation, and public infrastructure.",https://www.epw.senate.gov/public/index.cfm/committee-jurisdiction
senate,Senate Committee on Environment and Public Works,http://epw.senate.gov/,http://democrats.waysandmeans.house.gov/,SSEV,SSEV,United States Senate Committee on Environment and Public Works,WM,Green Jobs and the New Economy,16,United States Senate Environment and Public Works Subcommittee on Green Jobs and the New Economy,,,"1102 LHOB; Washington, DC 20515-6348",(202) 225-3625,http://www.epw.senate.gov/public/index.cfm?FuseAction=RSS.Majority,http://www.epw.senate.gov/public/index.cfm?FuseAction=RSS.Minority,"The Senate Committee on Environment and Public Works has legislative jurisdiction on matters related to environmental protection, resource utilization and conservation, and public infrastructure.",https://www.epw.senate.gov/public/index.cfm/committee-jurisdiction
senate,Senate Committee on Environment and Public Works,http://epw.senate.gov/,http://democrats.waysandmeans.house.gov/,SSEV,SSEV,United States Senate Committee on Environment and Public Works,WM,Oversight,18,United States Senate Environment and Public Works Subcommittee on Oversight,,,"1102 LHOB; Washington, DC 20515-6348",(202) 225-3625,http://www.epw.senate.gov/public/index.cfm?FuseAction=RSS.Majority,http://www.epw.senate.gov/public/index.cfm?FuseAction=RSS.Minority,"The Senate Committee on Environment and Public Works has legislative jurisdiction on matters related to environmental protection, resource utilization and conservation, and public infrastructure.",https://www.epw.senate.gov/public/index.cfm/committee-jurisdiction
senate,Senate Committee on Environment and Public Works,http://epw.senate.gov/,http://democrats.waysandmeans.house.gov/,SSEV,SSEV,United States Senate Committee on Environment and Public Works,WM,Transportation and Infrastructure,08,United States Senate Environment and Public Works Subcommittee on Transportation and Infrastructure,,,"1102 LHOB; Washington, DC 20515-6348",(202) 225-3625,http://www.epw.senate.gov/public/index.cfm?FuseAction=RSS.Majority,http://www.epw.senate.gov/public/index.cfm?FuseAction=RSS.Minority,"The Senate Committee on Environment and Public Works has legislative jurisdiction on matters related to environmental protection, resource utilization and conservation, and public infrastructure.",https://www.epw.senate.gov/public/index.cfm/committee-jurisdiction
senate,Senate Committee on Environment and Public Works,http://epw.senate.gov/,http://democrats.waysandmeans.house.gov/,SSEV,SSEV,United States Senate Committee on Environment and Public Works,WM,"Fisheries, Water, and Wildlife",15,United States Senate Environment and Public Works Subcommittee on Water and Wildlife,,,"1102 LHOB; Washington, DC 20515-6348",(202) 225-3625,http://www.epw.senate.gov/public/index.cfm?FuseAction=RSS.Majority,http://www.epw.senate.gov/public/index.cfm?FuseAction=RSS.Minority,"The Senate Committee on Environment and Public Works has legislative jurisdiction on matters related to environmental protection, resource utilization and conservation, and public infrastructure.",https://www.epw.senate.gov/public/index.cfm/committee-jurisdiction
senate,Senate Committee on Finance,http://finance.senate.gov/,http://democrats.waysandmeans.house.gov/,SSFI,SSFI,United States Senate Committee on Finance,WM,"Energy, Natural Resources, and Infrastructure",12,"United States Senate Finance Subcommittee on Energy, Natural Resources, and Infrastructure",,,"1102 LHOB; Washington, DC 20515-6348",(202) 225-3625,http://www.finance.senate.gov/rss/feed/chair/,http://www.finance.senate.gov/rss/feed/ranking/,"The Senate Committee on Finance has legislative jurisdiction on matters relating to taxation, debt, customs, foreign trade, and health programs under the Social Security Act such as Medicare, Medicaid, the Children's Health Insurance Program (CHIP), Temporary Assistance to Needy Families (TANF) and other health and human services programs financed by a specific tax or trust fund.",https://www.ethics.senate.gov/public/index.cfm/jurisdiction
senate,Senate Committee on Finance,http://finance.senate.gov/,http://democrats.waysandmeans.house.gov/,SSFI,SSFI,United States Senate Committee on Finance,WM,Health Care,10,United States Senate Finance Subcommittee on Health Care,,,"1102 LHOB; Washington, DC 20515-6348",(202) 225-3625,http://www.finance.senate.gov/rss/feed/chair/,http://www.finance.senate.gov/rss/feed/ranking/,"The Senate Committee on Finance has legislative jurisdiction on matters relating to taxation, debt, customs, foreign trade, and health programs under the Social Security Act such as Medicare, Medicaid, the Children's Health Insurance Program (CHIP), Temporary Assistance to Needy Families (TANF) and other health and human services programs financed by a specific tax or trust fund.",https://www.ethics.senate.gov/public/index.cfm/jurisdiction
senate,Senate Committee on Finance,http://finance.senate.gov/,http://democrats.waysandmeans.house.gov/,SSFI,SSFI,United States Senate Committee on Finance,WM,"International Trade, Customs, and Global Competitiveness",13,"United States Senate Finance Subcommittee on International Trade, Customs, and Global Competitiveness",,,"1102 LHOB; Washington, DC 20515-6348",(202) 225-3625,http://www.finance.senate.gov/rss/feed/chair/,http://www.finance.senate.gov/rss/feed/ranking/,"The Senate Committee on Finance has legislative jurisdiction on matters relating to taxation, debt, customs, foreign trade, and health programs under the Social Security Act such as Medicare, Medicaid, the Children's Health Insurance Program (CHIP), Temporary Assistance to Needy Families (TANF) and other health and human services programs financed by a specific tax or trust fund.",https://www.ethics.senate.gov/public/index.cfm/jurisdiction
senate,Senate Committee on Finance,http://finance.senate.gov/,http://democrats.waysandmeans.house.gov/,SSFI,SSFI,United States Senate Committee on Finance,WM,Fiscal Responsibility and Economic Growth,14,United States Senate Finance Subcommittee on Fiscal Responsibility and Economic Growth,,,"1102 LHOB; Washington, DC 20515-6348",(202) 225-3625,http://www.finance.senate.gov/rss/feed/chair/,http://www.finance.senate.gov/rss/feed/ranking/,"The Senate Committee on Finance has legislative jurisdiction on matters relating to taxation, debt, customs, foreign trade, and health programs under the Social Security Act such as Medicare, Medicaid, the Children's Health Insurance Program (CHIP), Temporary Assistance to Needy Families (TANF) and other health and human services programs financed by a specific tax or trust fund.",https://www.ethics.senate.gov/public/index.cfm/jurisdiction
senate,Senate Committee on Finance,http://finance.senate.gov/,http://democrats.waysandmeans.house.gov/,SSFI,SSFI,United States Senate Committee on Finance,WM,Taxation and IRS Oversight,11,United States Senate Finance Subcommittee on Taxation and IRS Oversight,,,"1102 LHOB; Washington, DC 20515-6348",(202) 225-3625,http://www.finance.senate.gov/rss/feed/chair/,http://www.finance.senate.gov/rss/feed/ranking/,"The Senate Committee on Finance has legislative jurisdiction on matters relating to taxation, debt, customs, foreign trade, and health programs under the Social Security Act such as Medicare, Medicaid, the Children's Health Insurance Program (CHIP), Temporary Assistance to Needy Families (TANF) and other health and human services programs financed by a specific tax or trust fund.",https://www.ethics.senate.gov/public/index.cfm/jurisdiction
senate,Senate Committee on Finance,http://finance.senate.gov/,http://democrats.waysandmeans.house.gov/,SSFI,SSFI,United States Senate Committee on Finance,WM,"Social Security, Pensions, and Family Policy",02,"United States Senate Finance Subcommittee on Social Security, Pensions, and Family Policy",,,"1102 LHOB; Washington, DC 20515-6348",(202) 225-3625,http://www.finance.senate.gov/rss/feed/chair/,http://www.finance.senate.gov/rss/feed/ranking/,"The Senate Committee on Finance has legislative jurisdiction on matters relating to taxation, debt, customs, foreign trade, and health programs under the Social Security Act such as Medicare, Medicaid, the Children's Health Insurance Program (CHIP), Temporary Assistance to Needy Families (TANF) and other health and human services programs financed by a specific tax or trust fund.",https://www.ethics.senate.gov/public/index.cfm/jurisdiction
senate,Senate Committee on Foreign Relations,http://foreign.senate.gov/,http://democrats.waysandmeans.house.gov/,SSFR,SSFR,United States Senate Committee on Foreign Relations,WM,"International Development and Foreign Assistance, Economic Affairs, International Environmental Protection, and Peace Corps",12,"United States Senate Foreign Relations Subcommittee on International Development and Foreign Assistance, Economic Affairs and International Environmental Protection, and Peace Corps",,,"1102 LHOB; Washington, DC 20515-6348",(202) 225-3625,http://www.foreign.senate.gov/rss/feed/chair/,http://www.foreign.senate.gov/rss/feed/ranking/,"The Senate Committee on Foreign Relations was established in 1816 as one of the original ten standing committees of the Senate. Throughout its history, the committee has been instrumental in developing and influencing United States foreign policy, at different times supporting and opposing the policies of presidents and secretaries of state. The committee has considered, debated, and reported important treaties and legislation, ranging from the purchase of Alaska in 1867 to the establishment of the United Nations in 1945. It also holds jurisdiction over all diplomatic nominations. Through these powers, the committee has helped shape foreign policy of broad significance, in matters of war and peace and international relations. Members of the committee have assisted in the negotiation of treaties, and at times have helped to defeat treaties they felt were not in the national interest.",https://www.foreign.senate.gov/about/history/
senate,Senate Committee on Foreign Relations,http://foreign.senate.gov/,http://democrats.waysandmeans.house.gov/,SSFR,SSFR,United States Senate Committee on Foreign Relations,WM,"International Operations and Organizations, Human Rights, Democracy, and Global Women's Issues",13,"United States Senate Foreign Relations Subcommittee on International Operations and Organizations, Human Rights, Democracy and Global Women's Issues",,,"1102 LHOB; Washington, DC 20515-6348",(202) 225-3625,http://www.foreign.senate.gov/rss/feed/chair/,http://www.foreign.senate.gov/rss/feed/ranking/,"The Senate Committee on Foreign Relations was established in 1816 as one of the original ten standing committees of the Senate. Throughout its history, the committee has been instrumental in developing and influencing United States foreign policy, at different times supporting and opposing the policies of presidents and secretaries of state. The committee has considered, debated, and reported important treaties and legislation, ranging from the purchase of Alaska in 1867 to the establishment of the United Nations in 1945. It also holds jurisdiction over all diplomatic nominations. Through these powers, the committee has helped shape foreign policy of broad significance, in matters of war and peace and international relations. Members of the committee have assisted in the negotiation of treaties, and at times have helped to defeat treaties they felt were not in the national interest.",https://www.foreign.senate.gov/about/history/
senate,Senate Committee on Foreign Relations,http://foreign.senate.gov/,http://democrats.waysandmeans.house.gov/,SSFR,SSFR,United States Senate Committee on Foreign Relations,WM,Europe and Regional Security Cooperation,01,United States Senate Foreign Relations Subcommittee on European Affairs,,,"1102 LHOB; Washington, DC 20515-6348",(202) 225-3625,http://www.foreign.senate.gov/rss/feed/chair/,http://www.foreign.senate.gov/rss/feed/ranking/,"The Senate Committee on Foreign Relations was established in 1816 as one of the original ten standing committees of the Senate. Throughout its history, the committee has been instrumental in developing and influencing United States foreign policy, at different times supporting and opposing the policies of presidents and secretaries of state. The committee has considered, debated, and reported important treaties and legislation, ranging from the purchase of Alaska in 1867 to the establishment of the United Nations in 1945. It also holds jurisdiction over all diplomatic nominations. Through these powers, the committee has helped shape foreign policy of broad significance, in matters of war and peace and international relations. Members of the committee have assisted in the negotiation of treaties, and at times have helped to defeat treaties they felt were not in the national interest.",https://www.foreign.senate.gov/about/history/
senate,Senate Committee on Foreign Relations,http://foreign.senate.gov/,http://democrats.waysandmeans.house.gov/,SSFR,SSFR,United States Senate Committee on Foreign Relations,WM,Africa and Global Health Policy,09,United States Senate Foreign Relations Subcommittee on African Affairs,,,"1102 LHOB; Washington, DC 20515-6348",(202) 225-3625,http://www.foreign.senate.gov/rss/feed/chair/,http://www.foreign.senate.gov/rss/feed/ranking/,"The Senate Committee on Foreign Relations was established in 1816 as one of the original ten standing committees of the Senate. Throughout its history, the committee has been instrumental in developing and influencing United States foreign policy, at different times supporting and opposing the policies of presidents and secretaries of state. The committee has considered, debated, and reported important treaties and legislation, ranging from the purchase of Alaska in 1867 to the establishment of the United Nations in 1945. It also holds jurisdiction over all diplomatic nominations. Through these powers, the committee has helped shape foreign policy of broad significance, in matters of war and peace and international relations. Members of the committee have assisted in the negotiation of treaties, and at times have helped to defeat treaties they felt were not in the national interest.",https://www.foreign.senate.gov/about/history/
senate,Senate Committee on Foreign Relations,http://foreign.senate.gov/,http://democrats.waysandmeans.house.gov/,SSFR,SSFR,United States Senate Committee on Foreign Relations,WM,"East Asia, the Pacific, and International Cybersecurity Policy",02,United States Senate Foreign Relations Subcommittee on East Asian and Pacific Affairs,,,"1102 LHOB; Washington, DC 20515-6348",(202) 225-3625,http://www.foreign.senate.gov/rss/feed/chair/,http://www.foreign.senate.gov/rss/feed/ranking/,"The Senate Committee on Foreign Relations was established in 1816 as one of the original ten standing committees of the Senate. Throughout its history, the committee has been instrumental in developing and influencing United States foreign policy, at different times supporting and opposing the policies of presidents and secretaries of state. The committee has considered, debated, and reported important treaties and legislation, ranging from the purchase of Alaska in 1867 to the establishment of the United Nations in 1945. It also holds jurisdiction over all diplomatic nominations. Through these powers, the committee has helped shape foreign policy of broad significance, in matters of war and peace and international relations. Members of the committee have assisted in the negotiation of treaties, and at times have helped to defeat treaties they felt were not in the national interest.",https://www.foreign.senate.gov/about/history/
senate,Senate Committee on Foreign Relations,http://foreign.senate.gov/,http://democrats.waysandmeans.house.gov/,SSFR,SSFR,United States Senate Committee on Foreign Relations,WM,"Near East, South Asia, Central Asia, and Counterterrorism",07,United States Senate Foreign Relations Subcommittee on Near Eastern and South and Central Asian Affairs,,,"1102 LHOB; Washington, DC 20515-6348",(202) 225-3625,http://www.foreign.senate.gov/rss/feed/chair/,http://www.foreign.senate.gov/rss/feed/ranking/,"The Senate Committee on Foreign Relations was established in 1816 as one of the original ten standing committees of the Senate. Throughout its history, the committee has been instrumental in developing and influencing United States foreign policy, at different times supporting and opposing the policies of presidents and secretaries of state. The committee has considered, debated, and reported important treaties and legislation, ranging from the purchase of Alaska in 1867 to the establishment of the United Nations in 1945. It also holds jurisdiction over all diplomatic nominations. Through these powers, the committee has helped shape foreign policy of broad significance, in matters of war and peace and international relations. Members of the committee have assisted in the negotiation of treaties, and at times have helped to defeat treaties they felt were not in the national interest.",https://www.foreign.senate.gov/about/history/
senate,Senate Committee on Foreign Relations,http://foreign.senate.gov/,http://democrats.waysandmeans.house.gov/,SSFR,SSFR,United States Senate Committee on Foreign Relations,WM,"Western Hemisphere, Transnational Crime, Civilian Security, Democracy, Human Rights, and Global Women's Issues",06,United States Senate Foreign Relations Subcommittee on Western Hemisphere and Global Narcotics Affairs,,,"1102 LHOB; Washington, DC 20515-6348",(202) 225-3625,http://www.foreign.senate.gov/rss/feed/chair/,http://www.foreign.senate.gov/rss/feed/ranking/,"The Senate Committee on Foreign Relations was established in 1816 as one of the original ten standing committees of the Senate. Throughout its history, the committee has been instrumental in developing and influencing United States foreign policy, at different times supporting and opposing the policies of presidents and secretaries of state. The committee has considered, debated, and reported important treaties and legislation, ranging from the purchase of Alaska in 1867 to the establishment of the United Nations in 1945. It also holds jurisdiction over all diplomatic nominations. Through these powers, the committee has helped shape foreign policy of broad significance, in matters of war and peace and international relations. Members of the committee have assisted in the negotiation of treaties, and at times have helped to defeat treaties they felt were not in the national interest.",https://www.foreign.senate.gov/about/history/
senate,Senate Committee on Foreign Relations,http://foreign.senate.gov/,http://democrats.waysandmeans.house.gov/,SSFR,SSFR,United States Senate Committee on Foreign Relations,WM,"Multilateral International Development, Multilateral Institutions, and International Economic, Energy, and Environmental Policy",15,,,,"1102 LHOB; Washington, DC 20515-6348",(202) 225-3625,http://www.foreign.senate.gov/rss/feed/chair/,http://www.foreign.senate.gov/rss/feed/ranking/,"The Senate Committee on Foreign Relations was established in 1816 as one of the original ten standing committees of the Senate. Throughout its history, the committee has been instrumental in developing and influencing United States foreign policy, at different times supporting and opposing the policies of presidents and secretaries of state. The committee has considered, debated, and reported important treaties and legislation, ranging from the purchase of Alaska in 1867 to the establishment of the United Nations in 1945. It also holds jurisdiction over all diplomatic nominations. Through these powers, the committee has helped shape foreign policy of broad significance, in matters of war and peace and international relations. Members of the committee have assisted in the negotiation of treaties, and at times have helped to defeat treaties they felt were not in the national interest.",https://www.foreign.senate.gov/about/history/
senate,Senate Committee on Foreign Relations,http://foreign.senate.gov/,http://democrats.waysandmeans.house.gov/,SSFR,SSFR,United States Senate Committee on Foreign Relations,WM,"State Department and USAID Management, International Operations, and Bilateral International Development",14,,,,"1102 LHOB; Washington, DC 20515-6348",(202) 225-3625,http://www.foreign.senate.gov/rss/feed/chair/,http://www.foreign.senate.gov/rss/feed/ranking/,"The Senate Committee on Foreign Relations was established in 1816 as one of the original ten standing committees of the Senate. Throughout its history, the committee has been instrumental in developing and influencing United States foreign policy, at different times supporting and opposing the policies of presidents and secretaries of state. The committee has considered, debated, and reported important treaties and legislation, ranging from the purchase of Alaska in 1867 to the establishment of the United Nations in 1945. It also holds jurisdiction over all diplomatic nominations. Through these powers, the committee has helped shape foreign policy of broad significance, in matters of war and peace and international relations. Members of the committee have assisted in the negotiation of treaties, and at times have helped to defeat treaties they felt were not in the national interest.",https://www.foreign.senate.gov/about/history/
senate,Senate Committee on Homeland Security and Governmental Affairs,http://hsgac.senate.gov/,http://democrats.waysandmeans.house.gov/,SSGA,SSGA,United States Senate Committee on Homeland Security and Governmental Affairs,WM,Permanent Subcommittee on Investigations,01,United States Senate Homeland Security Permanent Subcommittee on Investigations,,,"1102 LHOB; Washington, DC 20515-6348",(202) 225-3625,http://www.foreign.senate.gov/rss/feed/chair/,http://www.foreign.senate.gov/rss/feed/ranking/,"The Senate Committee on Homeland Security and Governmental Affairs is the Senate’s primary oversight committee with broad jurisdiction over government operations generally and the Department of Homeland Security in particular. Its primary responsibilities are to study the efficiency, economy, and effectiveness of all agencies and departments of the federal government; evaluate the effects of laws enacted to reorganize the legislative and executive branches of government; and study the intergovernmental relationships between the U.S. and states and municipalities, and between the U.S. and international organizations of which the U.S. is a member.",https://www.hsgac.senate.gov/about/jurisdiction
senate,Senate Committee on Homeland Security and Governmental Affairs,http://hsgac.senate.gov/,http://democrats.waysandmeans.house.gov/,SSGA,SSGA,United States Senate Committee on Homeland Security and Governmental Affairs,WM,"Emergency Management, Intergovernmental Relations, and the District of Columbia",17,,,,"1102 LHOB; Washington, DC 20515-6348",(202) 225-3625,http://www.foreign.senate.gov/rss/feed/chair/,http://www.foreign.senate.gov/rss/feed/ranking/,"The Senate Committee on Homeland Security and Governmental Affairs is the Senate’s primary oversight committee with broad jurisdiction over government operations generally and the Department of Homeland Security in particular. Its primary responsibilities are to study the efficiency, economy, and effectiveness of all agencies and departments of the federal government; evaluate the effects of laws enacted to reorganize the legislative and executive branches of government; and study the intergovernmental relationships between the U.S. and states and municipalities, and between the U.S. and international organizations of which the U.S. is a member.",https://www.hsgac.senate.gov/about/jurisdiction
senate,Senate Committee on Homeland Security and Governmental Affairs,http://hsgac.senate.gov/,http://democrats.waysandmeans.house.gov/,SSGA,SSGA,United States Senate Committee on Homeland Security and Governmental Affairs,WM,Financial and Contracting Oversight,15,,,,"1102 LHOB; Washington, DC 20515-6348",(202) 225-3625,http://www.foreign.senate.gov/rss/feed/chair/,http://www.foreign.senate.gov/rss/feed/ranking/,"The Senate Committee on Homeland Security and Governmental Affairs is the Senate’s primary oversight committee with broad jurisdiction over government operations generally and the Department of Homeland Security in particular. Its primary responsibilities are to study the efficiency, economy, and effectiveness of all agencies and departments of the federal government; evaluate the effects of laws enacted to reorganize the legislative and executive branches of government; and study the intergovernmental relationships between the U.S. and states and municipalities, and between the U.S. and international organizations of which the U.S. is a member.",https://www.hsgac.senate.gov/about/jurisdiction
senate,Senate Committee on Homeland Security and Governmental Affairs,http://hsgac.senate.gov/,http://democrats.waysandmeans.house.gov/,SSGA,SSGA,United States Senate Committee on Homeland Security and Governmental Affairs,WM,the Efficiency and Effectiveness of Federal Programs and the Federal Workforce,16,,,,"1102 LHOB; Washington, DC 20515-6348",(202) 225-3625,http://www.foreign.senate.gov/rss/feed/chair/,http://www.foreign.senate.gov/rss/feed/ranking/,"The Senate Committee on Homeland Security and Governmental Affairs is the Senate’s primary oversight committee with broad jurisdiction over government operations generally and the Department of Homeland Security in particular. Its primary responsibilities are to study the efficiency, economy, and effectiveness of all agencies and departments of the federal government; evaluate the effects of laws enacted to reorganize the legislative and executive branches of government; and study the intergovernmental relationships between the U.S. and states and municipalities, and between the U.S. and international organizations of which the U.S. is a member.",https://www.hsgac.senate.gov/about/jurisdiction
senate,Senate Committee on Homeland Security and Governmental Affairs,http://hsgac.senate.gov/,http://democrats.waysandmeans.house.gov/,SSGA,SSGA,United States Senate Committee on Homeland Security and Governmental Affairs,WM,Federal Spending Oversight and Emergency Management,18,,,,"1102 LHOB; Washington, DC 20515-6348",(202) 225-3625,http://www.foreign.senate.gov/rss/feed/chair/,http://www.foreign.senate.gov/rss/feed/ranking/,"The Senate Committee on Homeland Security and Governmental Affairs is the Senate’s primary oversight committee with broad jurisdiction over government operations generally and the Department of Homeland Security in particular. Its primary responsibilities are to study the efficiency, economy, and effectiveness of all agencies and departments of the federal government; evaluate the effects of laws enacted to reorganize the legislative and executive branches of government; and study the intergovernmental relationships between the U.S. and states and municipalities, and between the U.S. and international organizations of which the U.S. is a member.",https://www.hsgac.senate.gov/about/jurisdiction
senate,Senate Committee on Homeland Security and Governmental Affairs,http://hsgac.senate.gov/,http://democrats.waysandmeans.house.gov/,SSGA,SSGA,United States Senate Committee on Homeland Security and Governmental Affairs,WM,Regulatory Affairs and Federal Management,19,,,,"1102 LHOB; Washington, DC 20515-6348",(202) 225-3625,http://www.foreign.senate.gov/rss/feed/chair/,http://www.foreign.senate.gov/rss/feed/ranking/,"The Senate Committee on Homeland Security and Governmental Affairs is the Senate’s primary oversight committee with broad jurisdiction over government operations generally and the Department of Homeland Security in particular. Its primary responsibilities are to study the efficiency, economy, and effectiveness of all agencies and departments of the federal government; evaluate the effects of laws enacted to reorganize the legislative and executive branches of government; and study the intergovernmental relationships between the U.S. and states and municipalities, and between the U.S. and international organizations of which the U.S. is a member.",https://www.hsgac.senate.gov/about/jurisdiction
senate,"Senate Committee on Health, Education, Labor, and Pensions",http://help.senate.gov/,http://democrats.waysandmeans.house.gov/,SSHR,SSHR,"United States Senate Committee on Health, Education, Labor, and Pensions",WM,Employment and Workplace Safety,11,United States Senate Health Subcommittee on Employment and Workplace Safety,,,"1102 LHOB; Washington, DC 20515-6348",(202) 225-3625,http://www.help.senate.gov/rss/feed/chair/,http://www.help.senate.gov/rss/feed/ranking/,"The Senate Committee on Health, Education, Labor, and Pensions has jurisdiction over most of the agencies, institutes, and programs of the Department of Health and Human Services, including the Food and Drug Administration, the Centers for Disease Control and Prevention, the National Institutes of Health, the Administration on Aging, the Substance Abuse and Mental Health Services Administration, and the Agency for Healthcare Research and Quality.",https://www.help.senate.gov/about/issues/
senate,"Senate Committee on Health, Education, Labor, and Pensions",http://help.senate.gov/,http://democrats.waysandmeans.house.gov/,SSHR,SSHR,"United States Senate Committee on Health, Education, Labor, and Pensions",WM,Primary Health and Retirement Security,12,United States Senate Health Subcommittee on Primary Health and Aging,,,"1102 LHOB; Washington, DC 20515-6348",(202) 225-3625,http://www.help.senate.gov/rss/feed/chair/,http://www.help.senate.gov/rss/feed/ranking/,"The Senate Committee on Health, Education, Labor, and Pensions has jurisdiction over most of the agencies, institutes, and programs of the Department of Health and Human Services, including the Food and Drug Administration, the Centers for Disease Control and Prevention, the National Institutes of Health, the Administration on Aging, the Substance Abuse and Mental Health Services Administration, and the Agency for Healthcare Research and Quality.",https://www.help.senate.gov/about/issues/
senate,"Senate Committee on Health, Education, Labor, and Pensions",http://help.senate.gov/,http://democrats.waysandmeans.house.gov/,SSHR,SSHR,"United States Senate Committee on Health, Education, Labor, and Pensions",WM,Children and Families,09,United States Senate Health Subcommittee on Children and Families,,,"1102 LHOB; Washington, DC 20515-6348",(202) 225-3625,http://www.help.senate.gov/rss/feed/chair/,http://www.help.senate.gov/rss/feed/ranking/,"The Senate Committee on Health, Education, Labor, and Pensions has jurisdiction over most of the agencies, institutes, and programs of the Department of Health and Human Services, including the Food and Drug Administration, the Centers for Disease Control and Prevention, the National Institutes of Health, the Administration on Aging, the Substance Abuse and Mental Health Services Administration, and the Agency for Healthcare Research and Quality.",https://www.help.senate.gov/about/issues/
senate,Senate Committee on the Judiciary,http://judiciary.senate.gov/,http://democrats.waysandmeans.house.gov/,SSJU,SSJU,United States Senate Committee on the Judiciary,WM,the Constitution,21,"United States Senate Judiciary Subcommittee on the Constitution, Civil Rights and Human Rights",,,"1102 LHOB; Washington, DC 20515-6348",(202) 225-3625,http://www.help.senate.gov/rss/feed/chair/,http://www.help.senate.gov/rss/feed/ranking/,"The Senate Committee on the Judiciary provides oversight of the Department of Justice and the agencies under the Department's jurisdiction, including the Federal Bureau of Investigation, and the Department of Homeland Security. It also plays an important role in the consideration of nominations and pending legislation. Any legislation related to civil liberty, constitutional amendments, immigration and naturalization, and a variety of other topics is referred to the Committee.",https://www.judiciary.senate.gov/about/jurisdiction
senate,Senate Committee on the Judiciary,http://judiciary.senate.gov/,http://democrats.waysandmeans.house.gov/,SSJU,SSJU,United States Senate Committee on the Judiciary,WM,Crime and Terrorism,22,United States Senate Judiciary Subcommittee on Crime and Terrorism,,,"1102 LHOB; Washington, DC 20515-6348",(202) 225-3625,http://www.help.senate.gov/rss/feed/chair/,http://www.help.senate.gov/rss/feed/ranking/,"The Senate Committee on the Judiciary provides oversight of the Department of Justice and the agencies under the Department's jurisdiction, including the Federal Bureau of Investigation, and the Department of Homeland Security. It also plays an important role in the consideration of nominations and pending legislation. Any legislation related to civil liberty, constitutional amendments, immigration and naturalization, and a variety of other topics is referred to the Committee.",https://www.judiciary.senate.gov/about/jurisdiction
senate,Senate Committee on the Judiciary,http://judiciary.senate.gov/,http://democrats.waysandmeans.house.gov/,SSJU,SSJU,United States Senate Committee on the Judiciary,WM,"Privacy, Technology and the Law",23,"United States Senate Judiciary Subcommittee on Privacy, Technology and the Law",,,"1102 LHOB; Washington, DC 20515-6348",(202) 225-3625,http://www.help.senate.gov/rss/feed/chair/,http://www.help.senate.gov/rss/feed/ranking/,"The Senate Committee on the Judiciary provides oversight of the Department of Justice and the agencies under the Department's jurisdiction, including the Federal Bureau of Investigation, and the Department of Homeland Security. It also plays an important role in the consideration of nominations and pending legislation. Any legislation related to civil liberty, constitutional amendments, immigration and naturalization, and a variety of other topics is referred to the Committee.",https://www.judiciary.senate.gov/about/jurisdiction
senate,Senate Committee on the Judiciary,http://judiciary.senate.gov/,http://democrats.waysandmeans.house.gov/,SSJU,SSJU,United States Senate Committee on the Judiciary,WM,"Antitrust, Competition Policy and Consumer Rights",01,"United States Senate Judiciary Subcommittee on Antitrust, Competition Policy and Consumer Rights",,,"1102 LHOB; Washington, DC 20515-6348",(202) 225-3625,http://www.help.senate.gov/rss/feed/chair/,http://www.help.senate.gov/rss/feed/ranking/,"The Senate Committee on the Judiciary provides oversight of the Department of Justice and the agencies under the Department's jurisdiction, including the Federal Bureau of Investigation, and the Department of Homeland Security. It also plays an important role in the consideration of nominations and pending legislation. Any legislation related to civil liberty, constitutional amendments, immigration and naturalization, and a variety of other topics is referred to the Committee.",https://www.judiciary.senate.gov/about/jurisdiction
senate,Senate Committee on the Judiciary,http://judiciary.senate.gov/,http://democrats.waysandmeans.house.gov/,SSJU,SSJU,United States Senate Committee on the Judiciary,WM,Border Security and Immigration,04,"United States Senate Judiciary Subcommittee on Immigration, Refugees and Border Security",,,"1102 LHOB; Washington, DC 20515-6348",(202) 225-3625,http://www.help.senate.gov/rss/feed/chair/,http://www.help.senate.gov/rss/feed/ranking/,"The Senate Committee on the Judiciary provides oversight of the Department of Justice and the agencies under the Department's jurisdiction, including the Federal Bureau of Investigation, and the Department of Homeland Security. It also plays an important role in the consideration of nominations and pending legislation. Any legislation related to civil liberty, constitutional amendments, immigration and naturalization, and a variety of other topics is referred to the Committee.",https://www.judiciary.senate.gov/about/jurisdiction
senate,Senate Committee on the Judiciary,http://judiciary.senate.gov/,http://democrats.waysandmeans.house.gov/,SSJU,SSJU,United States Senate Committee on the Judiciary,WM,Bankruptcy and the Courts,24,,,,"1102 LHOB; Washington, DC 20515-6348",(202) 225-3625,http://www.help.senate.gov/rss/feed/chair/,http://www.help.senate.gov/rss/feed/ranking/,"The Senate Committee on the Judiciary provides oversight of the Department of Justice and the agencies under the Department's jurisdiction, including the Federal Bureau of Investigation, and the Department of Homeland Security. It also plays an important role in the consideration of nominations and pending legislation. Any legislation related to civil liberty, constitutional amendments, immigration and naturalization, and a variety of other topics is referred to the Committee.",https://www.judiciary.senate.gov/about/jurisdiction
senate,Senate Committee on the Judiciary,http://judiciary.senate.gov/,http://democrats.waysandmeans.house.gov/,SSJU,SSJU,United States Senate Committee on the Judiciary,WM,"Oversight, Agency Action, Federal Rights and Federal Courts",25,,,,"1102 LHOB; Washington, DC 20515-6348",(202) 225-3625,http://www.help.senate.gov/rss/feed/chair/,http://www.help.senate.gov/rss/feed/ranking/,"The Senate Committee on the Judiciary provides oversight of the Department of Justice and the agencies under the Department's jurisdiction, including the Federal Bureau of Investigation, and the Department of Homeland Security. It also plays an important role in the consideration of nominations and pending legislation. Any legislation related to civil liberty, constitutional amendments, immigration and naturalization, and a variety of other topics is referred to the Committee.",https://www.judiciary.senate.gov/about/jurisdiction
senate,Senate Committee on Rules and Administration,http://rules.senate.gov/,http://democrats.waysandmeans.house.gov/,SSRA,SSRA,United States Senate Committee on Rules and Administration,WM,,,,,,"1102 LHOB; Washington, DC 20515-6348",(202) 225-3625,http://www.rules.senate.gov/public/?a=RSS.Feed,http://www.help.senate.gov/rss/feed/ranking/,"The Senate Committee on Rules and Administration has legislative jurisdiction over the organization and operation of Congress. This includes matters such as congressional rules and procedures, corruption, the relationship of Congress with the other branches of government, and general administration of the Senate. The Committee is also responsible for recommending improvements in organization and operation with a view toward strengthening Congress, simplifying its operations, improving its relationships with other branches of the United States Government, and enabling it better to meet its responsibilities under the Constitution of the United States.",https://www.rules.senate.gov/public/index.cfm?p=PurposeJurisdiction
senate,Senate Committee on Small Business and Entrepreneurship,http://sbc.senate.gov/,http://democrats.waysandmeans.house.gov/,SSSB,SSSB,United States Senate Committee on Small Business and Entrepreneurship,WM,,,,,,"1102 LHOB; Washington, DC 20515-6348",(202) 225-3625,http://www.sbc.senate.gov/public/?a=RSS.Feed,http://www.help.senate.gov/rss/feed/ranking/,"The Senate Committee on Small Business and Entrepreneurship has legislative jurisdiction over the Small Business Administration (SBA). The SBA is an independent federal agency meant to assist and protect the interests of small businesses. The Committee is also responsible for studying and problems of American small business enterprises, and reporting back to the Senate.",https://www.sbc.senate.gov/public/index.cfm/jurisdiction
senate,Senate Committee on Veterans' Affairs,http://veterans.senate.gov/,http://democrats.waysandmeans.house.gov/,SSVA,SSVA,United States Senate Committee on Veterans' Affairs,WM,,,,,,"1102 LHOB; Washington, DC 20515-6348",(202) 225-3625,http://www.veterans.senate.gov/rss.cfm,http://www.veterans.senate.gov/rankingmember/rss.cfm,"The Senate Committee on Veterans' Affairs has legislative jurisdiction over matters relating to veterans compensation and veterans generally, as well as matters relating to the vocational rehabilitation, education, medical care, civil relief, and civilian readjustment of veterans.",https://www.veterans.senate.gov/about
